<?xml version='1.0' encoding='utf-8'?>
<gpx xmlns="http://www.topografix.com/GPX/1/1" version="1.1" creator="hit_run_simulator.py" xmlns:xsi="http://www.w3.org/2001/XMLSchema-instance" xsi:schemaLocation="http://www.topografix.com/GPX/1/1 http://www.topografix.com/GPX/1/1/gpx.xsd">
  <metadata>
    <name>HIT Campus I athletics track · 2.2 km test route</name>
  </metadata>
  <trk>
    <name>HIT Campus I track simulation</name>
    <trkseg>
      <trkpt lat="45.7367273" lon="126.6276818">
        <ele>0</ele>
        <time>2026-09-12T10:49:33.000Z</time>
      </trkpt>
      <trkpt lat="45.7366952" lon="126.6276786">
        <ele>0</ele>
        <time>2026-09-12T10:49:34.000Z</time>
      </trkpt>
      <trkpt lat="45.7366624" lon="126.6276719">
        <ele>0</ele>
        <time>2026-09-12T10:49:35.000Z</time>
      </trkpt>
      <trkpt lat="45.7366295" lon="126.6276679">
        <ele>0</ele>
        <time>2026-09-12T10:49:36.000Z</time>
      </trkpt>
      <trkpt lat="45.7365991" lon="126.6276630">
        <ele>0</ele>
        <time>2026-09-12T10:49:37.000Z</time>
      </trkpt>
      <trkpt lat="45.7365670" lon="126.6276619">
        <ele>0</ele>
        <time>2026-09-12T10:49:38.000Z</time>
      </trkpt>
      <trkpt lat="45.7365378" lon="126.6276631">
        <ele>0</ele>
        <time>2026-09-12T10:49:39.000Z</time>
      </trkpt>
      <trkpt lat="45.7365049" lon="126.6276620">
        <ele>0</ele>
        <time>2026-09-12T10:49:40.000Z</time>
      </trkpt>
      <trkpt lat="45.7364757" lon="126.6276583">
        <ele>0</ele>
        <time>2026-09-12T10:49:41.000Z</time>
      </trkpt>
      <trkpt lat="45.7364379" lon="126.6276617">
        <ele>0</ele>
        <time>2026-09-12T10:49:42.000Z</time>
      </trkpt>
      <trkpt lat="45.7364080" lon="126.6276606">
        <ele>0</ele>
        <time>2026-09-12T10:49:43.000Z</time>
      </trkpt>
      <trkpt lat="45.7363766" lon="126.6276491">
        <ele>0</ele>
        <time>2026-09-12T10:49:44.000Z</time>
      </trkpt>
      <trkpt lat="45.7363509" lon="126.6276532">
        <ele>0</ele>
        <time>2026-09-12T10:49:45.000Z</time>
      </trkpt>
      <trkpt lat="45.7363198" lon="126.6276482">
        <ele>0</ele>
        <time>2026-09-12T10:49:46.000Z</time>
      </trkpt>
      <trkpt lat="45.7362901" lon="126.6276484">
        <ele>0</ele>
        <time>2026-09-12T10:49:47.000Z</time>
      </trkpt>
      <trkpt lat="45.7362566" lon="126.6276432">
        <ele>0</ele>
        <time>2026-09-12T10:49:48.000Z</time>
      </trkpt>
      <trkpt lat="45.7362270" lon="126.6276380">
        <ele>0</ele>
        <time>2026-09-12T10:49:49.000Z</time>
      </trkpt>
      <trkpt lat="45.7362167" lon="126.6276402">
        <ele>0</ele>
        <time>2026-09-12T10:49:50.000Z</time>
      </trkpt>
      <trkpt lat="45.7361860" lon="126.6276622">
        <ele>0</ele>
        <time>2026-09-12T10:49:51.000Z</time>
      </trkpt>
      <trkpt lat="45.7361627" lon="126.6276886">
        <ele>0</ele>
        <time>2026-09-12T10:49:52.000Z</time>
      </trkpt>
      <trkpt lat="45.7361372" lon="126.6277223">
        <ele>0</ele>
        <time>2026-09-12T10:49:53.000Z</time>
      </trkpt>
      <trkpt lat="45.7361171" lon="126.6277638">
        <ele>0</ele>
        <time>2026-09-12T10:49:54.000Z</time>
      </trkpt>
      <trkpt lat="45.7360945" lon="126.6277954">
        <ele>0</ele>
        <time>2026-09-12T10:49:55.000Z</time>
      </trkpt>
      <trkpt lat="45.7360800" lon="126.6278290">
        <ele>0</ele>
        <time>2026-09-12T10:49:56.000Z</time>
      </trkpt>
      <trkpt lat="45.7360642" lon="126.6278638">
        <ele>0</ele>
        <time>2026-09-12T10:49:57.000Z</time>
      </trkpt>
      <trkpt lat="45.7360504" lon="126.6278969">
        <ele>0</ele>
        <time>2026-09-12T10:49:58.000Z</time>
      </trkpt>
      <trkpt lat="45.7360401" lon="126.6279413">
        <ele>0</ele>
        <time>2026-09-12T10:49:59.000Z</time>
      </trkpt>
      <trkpt lat="45.7360308" lon="126.6279795">
        <ele>0</ele>
        <time>2026-09-12T10:50:00.000Z</time>
      </trkpt>
      <trkpt lat="45.7360321" lon="126.6280272">
        <ele>0</ele>
        <time>2026-09-12T10:50:01.000Z</time>
      </trkpt>
      <trkpt lat="45.7360266" lon="126.6280676">
        <ele>0</ele>
        <time>2026-09-12T10:50:02.000Z</time>
      </trkpt>
      <trkpt lat="45.7360220" lon="126.6281140">
        <ele>0</ele>
        <time>2026-09-12T10:50:03.000Z</time>
      </trkpt>
      <trkpt lat="45.7360239" lon="126.6281488">
        <ele>0</ele>
        <time>2026-09-12T10:50:04.000Z</time>
      </trkpt>
      <trkpt lat="45.7360233" lon="126.6281860">
        <ele>0</ele>
        <time>2026-09-12T10:50:05.000Z</time>
      </trkpt>
      <trkpt lat="45.7360275" lon="126.6282232">
        <ele>0</ele>
        <time>2026-09-12T10:50:06.000Z</time>
      </trkpt>
      <trkpt lat="45.7360319" lon="126.6282722">
        <ele>0</ele>
        <time>2026-09-12T10:50:07.000Z</time>
      </trkpt>
      <trkpt lat="45.7360451" lon="126.6283075">
        <ele>0</ele>
        <time>2026-09-12T10:50:08.000Z</time>
      </trkpt>
      <trkpt lat="45.7360630" lon="126.6283494">
        <ele>0</ele>
        <time>2026-09-12T10:50:09.000Z</time>
      </trkpt>
      <trkpt lat="45.7360790" lon="126.6283905">
        <ele>0</ele>
        <time>2026-09-12T10:50:10.000Z</time>
      </trkpt>
      <trkpt lat="45.7360901" lon="126.6284224">
        <ele>0</ele>
        <time>2026-09-12T10:50:11.000Z</time>
      </trkpt>
      <trkpt lat="45.7361042" lon="126.6284678">
        <ele>0</ele>
        <time>2026-09-12T10:50:12.000Z</time>
      </trkpt>
      <trkpt lat="45.7361240" lon="126.6285003">
        <ele>0</ele>
        <time>2026-09-12T10:50:13.000Z</time>
      </trkpt>
      <trkpt lat="45.7361431" lon="126.6285300">
        <ele>0</ele>
        <time>2026-09-12T10:50:14.000Z</time>
      </trkpt>
      <trkpt lat="45.7361654" lon="126.6285596">
        <ele>0</ele>
        <time>2026-09-12T10:50:15.000Z</time>
      </trkpt>
      <trkpt lat="45.7361858" lon="126.6285865">
        <ele>0</ele>
        <time>2026-09-12T10:50:16.000Z</time>
      </trkpt>
      <trkpt lat="45.7362140" lon="126.6286046">
        <ele>0</ele>
        <time>2026-09-12T10:50:17.000Z</time>
      </trkpt>
      <trkpt lat="45.7362356" lon="126.6286258">
        <ele>0</ele>
        <time>2026-09-12T10:50:18.000Z</time>
      </trkpt>
      <trkpt lat="45.7362624" lon="126.6286502">
        <ele>0</ele>
        <time>2026-09-12T10:50:19.000Z</time>
      </trkpt>
      <trkpt lat="45.7362923" lon="126.6286657">
        <ele>0</ele>
        <time>2026-09-12T10:50:20.000Z</time>
      </trkpt>
      <trkpt lat="45.7363230" lon="126.6286728">
        <ele>0</ele>
        <time>2026-09-12T10:50:21.000Z</time>
      </trkpt>
      <trkpt lat="45.7363485" lon="126.6286800">
        <ele>0</ele>
        <time>2026-09-12T10:50:22.000Z</time>
      </trkpt>
      <trkpt lat="45.7363782" lon="126.6286813">
        <ele>0</ele>
        <time>2026-09-12T10:50:23.000Z</time>
      </trkpt>
      <trkpt lat="45.7364085" lon="126.6286778">
        <ele>0</ele>
        <time>2026-09-12T10:50:24.000Z</time>
      </trkpt>
      <trkpt lat="45.7364377" lon="126.6286828">
        <ele>0</ele>
        <time>2026-09-12T10:50:25.000Z</time>
      </trkpt>
      <trkpt lat="45.7364705" lon="126.6286919">
        <ele>0</ele>
        <time>2026-09-12T10:50:26.000Z</time>
      </trkpt>
      <trkpt lat="45.7365034" lon="126.6286937">
        <ele>0</ele>
        <time>2026-09-12T10:50:27.000Z</time>
      </trkpt>
      <trkpt lat="45.7365370" lon="126.6286881">
        <ele>0</ele>
        <time>2026-09-12T10:50:28.000Z</time>
      </trkpt>
      <trkpt lat="45.7365657" lon="126.6286893">
        <ele>0</ele>
        <time>2026-09-12T10:50:29.000Z</time>
      </trkpt>
      <trkpt lat="45.7366029" lon="126.6286862">
        <ele>0</ele>
        <time>2026-09-12T10:50:30.000Z</time>
      </trkpt>
      <trkpt lat="45.7366325" lon="126.6286832">
        <ele>0</ele>
        <time>2026-09-12T10:50:31.000Z</time>
      </trkpt>
      <trkpt lat="45.7366623" lon="126.6286830">
        <ele>0</ele>
        <time>2026-09-12T10:50:32.000Z</time>
      </trkpt>
      <trkpt lat="45.7366896" lon="126.6286829">
        <ele>0</ele>
        <time>2026-09-12T10:50:33.000Z</time>
      </trkpt>
      <trkpt lat="45.7367168" lon="126.6286784">
        <ele>0</ele>
        <time>2026-09-12T10:50:34.000Z</time>
      </trkpt>
      <trkpt lat="45.7367463" lon="126.6286840">
        <ele>0</ele>
        <time>2026-09-12T10:50:35.000Z</time>
      </trkpt>
      <trkpt lat="45.7367735" lon="126.6286814">
        <ele>0</ele>
        <time>2026-09-12T10:50:36.000Z</time>
      </trkpt>
      <trkpt lat="45.7367983" lon="126.6286851">
        <ele>0</ele>
        <time>2026-09-12T10:50:37.000Z</time>
      </trkpt>
      <trkpt lat="45.7368285" lon="126.6286817">
        <ele>0</ele>
        <time>2026-09-12T10:50:38.000Z</time>
      </trkpt>
      <trkpt lat="45.7368557" lon="126.6286841">
        <ele>0</ele>
        <time>2026-09-12T10:50:39.000Z</time>
      </trkpt>
      <trkpt lat="45.7368837" lon="126.6286849">
        <ele>0</ele>
        <time>2026-09-12T10:50:40.000Z</time>
      </trkpt>
      <trkpt lat="45.7369171" lon="126.6286821">
        <ele>0</ele>
        <time>2026-09-12T10:50:41.000Z</time>
      </trkpt>
      <trkpt lat="45.7369445" lon="126.6286869">
        <ele>0</ele>
        <time>2026-09-12T10:50:42.000Z</time>
      </trkpt>
      <trkpt lat="45.7369724" lon="126.6286877">
        <ele>0</ele>
        <time>2026-09-12T10:50:43.000Z</time>
      </trkpt>
      <trkpt lat="45.7370019" lon="126.6286838">
        <ele>0</ele>
        <time>2026-09-12T10:50:44.000Z</time>
      </trkpt>
      <trkpt lat="45.7370302" lon="126.6286863">
        <ele>0</ele>
        <time>2026-09-12T10:50:45.000Z</time>
      </trkpt>
      <trkpt lat="45.7370623" lon="126.6286874">
        <ele>0</ele>
        <time>2026-09-12T10:50:46.000Z</time>
      </trkpt>
      <trkpt lat="45.7370895" lon="126.6286924">
        <ele>0</ele>
        <time>2026-09-12T10:50:47.000Z</time>
      </trkpt>
      <trkpt lat="45.7371225" lon="126.6286944">
        <ele>0</ele>
        <time>2026-09-12T10:50:48.000Z</time>
      </trkpt>
      <trkpt lat="45.7371545" lon="126.6286967">
        <ele>0</ele>
        <time>2026-09-12T10:50:49.000Z</time>
      </trkpt>
      <trkpt lat="45.7371851" lon="126.6286910">
        <ele>0</ele>
        <time>2026-09-12T10:50:50.000Z</time>
      </trkpt>
      <trkpt lat="45.7372119" lon="126.6286817">
        <ele>0</ele>
        <time>2026-09-12T10:50:51.000Z</time>
      </trkpt>
      <trkpt lat="45.7372383" lon="126.6286705">
        <ele>0</ele>
        <time>2026-09-12T10:50:52.000Z</time>
      </trkpt>
      <trkpt lat="45.7372648" lon="126.6286571">
        <ele>0</ele>
        <time>2026-09-12T10:50:53.000Z</time>
      </trkpt>
      <trkpt lat="45.7372932" lon="126.6286356">
        <ele>0</ele>
        <time>2026-09-12T10:50:54.000Z</time>
      </trkpt>
      <trkpt lat="45.7373246" lon="126.6286245">
        <ele>0</ele>
        <time>2026-09-12T10:50:55.000Z</time>
      </trkpt>
      <trkpt lat="45.7373495" lon="126.6286059">
        <ele>0</ele>
        <time>2026-09-12T10:50:56.000Z</time>
      </trkpt>
      <trkpt lat="45.7373743" lon="126.6285781">
        <ele>0</ele>
        <time>2026-09-12T10:50:57.000Z</time>
      </trkpt>
      <trkpt lat="45.7373970" lon="126.6285433">
        <ele>0</ele>
        <time>2026-09-12T10:50:58.000Z</time>
      </trkpt>
      <trkpt lat="45.7374194" lon="126.6285135">
        <ele>0</ele>
        <time>2026-09-12T10:50:59.000Z</time>
      </trkpt>
      <trkpt lat="45.7374348" lon="126.6284837">
        <ele>0</ele>
        <time>2026-09-12T10:51:00.000Z</time>
      </trkpt>
      <trkpt lat="45.7374526" lon="126.6284468">
        <ele>0</ele>
        <time>2026-09-12T10:51:01.000Z</time>
      </trkpt>
      <trkpt lat="45.7374619" lon="126.6284048">
        <ele>0</ele>
        <time>2026-09-12T10:51:02.000Z</time>
      </trkpt>
      <trkpt lat="45.7374745" lon="126.6283692">
        <ele>0</ele>
        <time>2026-09-12T10:51:03.000Z</time>
      </trkpt>
      <trkpt lat="45.7374861" lon="126.6283319">
        <ele>0</ele>
        <time>2026-09-12T10:51:04.000Z</time>
      </trkpt>
      <trkpt lat="45.7374953" lon="126.6282895">
        <ele>0</ele>
        <time>2026-09-12T10:51:05.000Z</time>
      </trkpt>
      <trkpt lat="45.7375030" lon="126.6282541">
        <ele>0</ele>
        <time>2026-09-12T10:51:06.000Z</time>
      </trkpt>
      <trkpt lat="45.7375069" lon="126.6282117">
        <ele>0</ele>
        <time>2026-09-12T10:51:07.000Z</time>
      </trkpt>
      <trkpt lat="45.7375110" lon="126.6281662">
        <ele>0</ele>
        <time>2026-09-12T10:51:08.000Z</time>
      </trkpt>
      <trkpt lat="45.7375124" lon="126.6281252">
        <ele>0</ele>
        <time>2026-09-12T10:51:09.000Z</time>
      </trkpt>
      <trkpt lat="45.7375109" lon="126.6280865">
        <ele>0</ele>
        <time>2026-09-12T10:51:10.000Z</time>
      </trkpt>
      <trkpt lat="45.7375084" lon="126.6280451">
        <ele>0</ele>
        <time>2026-09-12T10:51:11.000Z</time>
      </trkpt>
      <trkpt lat="45.7375070" lon="126.6280074">
        <ele>0</ele>
        <time>2026-09-12T10:51:12.000Z</time>
      </trkpt>
      <trkpt lat="45.7374992" lon="126.6279672">
        <ele>0</ele>
        <time>2026-09-12T10:51:13.000Z</time>
      </trkpt>
      <trkpt lat="45.7374921" lon="126.6279227">
        <ele>0</ele>
        <time>2026-09-12T10:51:14.000Z</time>
      </trkpt>
      <trkpt lat="45.7374802" lon="126.6278834">
        <ele>0</ele>
        <time>2026-09-12T10:51:15.000Z</time>
      </trkpt>
      <trkpt lat="45.7374662" lon="126.6278493">
        <ele>0</ele>
        <time>2026-09-12T10:51:16.000Z</time>
      </trkpt>
      <trkpt lat="45.7374547" lon="126.6278076">
        <ele>0</ele>
        <time>2026-09-12T10:51:17.000Z</time>
      </trkpt>
      <trkpt lat="45.7374377" lon="126.6277624">
        <ele>0</ele>
        <time>2026-09-12T10:51:18.000Z</time>
      </trkpt>
      <trkpt lat="45.7374130" lon="126.6277322">
        <ele>0</ele>
        <time>2026-09-12T10:51:19.000Z</time>
      </trkpt>
      <trkpt lat="45.7373890" lon="126.6277062">
        <ele>0</ele>
        <time>2026-09-12T10:51:20.000Z</time>
      </trkpt>
      <trkpt lat="45.7373584" lon="126.6276866">
        <ele>0</ele>
        <time>2026-09-12T10:51:21.000Z</time>
      </trkpt>
      <trkpt lat="45.7373328" lon="126.6276686">
        <ele>0</ele>
        <time>2026-09-12T10:51:22.000Z</time>
      </trkpt>
      <trkpt lat="45.7373251" lon="126.6276711">
        <ele>0</ele>
        <time>2026-09-12T10:51:23.000Z</time>
      </trkpt>
      <trkpt lat="45.7372977" lon="126.6276692">
        <ele>0</ele>
        <time>2026-09-12T10:51:24.000Z</time>
      </trkpt>
      <trkpt lat="45.7372661" lon="126.6276816">
        <ele>0</ele>
        <time>2026-09-12T10:51:25.000Z</time>
      </trkpt>
      <trkpt lat="45.7372364" lon="126.6276821">
        <ele>0</ele>
        <time>2026-09-12T10:51:26.000Z</time>
      </trkpt>
      <trkpt lat="45.7372068" lon="126.6276825">
        <ele>0</ele>
        <time>2026-09-12T10:51:27.000Z</time>
      </trkpt>
      <trkpt lat="45.7371782" lon="126.6276820">
        <ele>0</ele>
        <time>2026-09-12T10:51:28.000Z</time>
      </trkpt>
      <trkpt lat="45.7371511" lon="126.6276863">
        <ele>0</ele>
        <time>2026-09-12T10:51:29.000Z</time>
      </trkpt>
      <trkpt lat="45.7371199" lon="126.6276872">
        <ele>0</ele>
        <time>2026-09-12T10:51:30.000Z</time>
      </trkpt>
      <trkpt lat="45.7370955" lon="126.6276913">
        <ele>0</ele>
        <time>2026-09-12T10:51:31.000Z</time>
      </trkpt>
      <trkpt lat="45.7370640" lon="126.6276940">
        <ele>0</ele>
        <time>2026-09-12T10:51:32.000Z</time>
      </trkpt>
      <trkpt lat="45.7370365" lon="126.6277014">
        <ele>0</ele>
        <time>2026-09-12T10:51:33.000Z</time>
      </trkpt>
      <trkpt lat="45.7370052" lon="126.6277027">
        <ele>0</ele>
        <time>2026-09-12T10:51:34.000Z</time>
      </trkpt>
      <trkpt lat="45.7369749" lon="126.6277031">
        <ele>0</ele>
        <time>2026-09-12T10:51:35.000Z</time>
      </trkpt>
      <trkpt lat="45.7369461" lon="126.6277009">
        <ele>0</ele>
        <time>2026-09-12T10:51:36.000Z</time>
      </trkpt>
      <trkpt lat="45.7369151" lon="126.6276935">
        <ele>0</ele>
        <time>2026-09-12T10:51:37.000Z</time>
      </trkpt>
      <trkpt lat="45.7368873" lon="126.6276906">
        <ele>0</ele>
        <time>2026-09-12T10:51:38.000Z</time>
      </trkpt>
      <trkpt lat="45.7368580" lon="126.6276923">
        <ele>0</ele>
        <time>2026-09-12T10:51:39.000Z</time>
      </trkpt>
      <trkpt lat="45.7368258" lon="126.6276895">
        <ele>0</ele>
        <time>2026-09-12T10:51:40.000Z</time>
      </trkpt>
      <trkpt lat="45.7367984" lon="126.6276908">
        <ele>0</ele>
        <time>2026-09-12T10:51:41.000Z</time>
      </trkpt>
      <trkpt lat="45.7367671" lon="126.6276899">
        <ele>0</ele>
        <time>2026-09-12T10:51:42.000Z</time>
      </trkpt>
      <trkpt lat="45.7367354" lon="126.6276921">
        <ele>0</ele>
        <time>2026-09-12T10:51:43.000Z</time>
      </trkpt>
      <trkpt lat="45.7367014" lon="126.6276873">
        <ele>0</ele>
        <time>2026-09-12T10:51:44.000Z</time>
      </trkpt>
      <trkpt lat="45.7366755" lon="126.6276871">
        <ele>0</ele>
        <time>2026-09-12T10:51:45.000Z</time>
      </trkpt>
      <trkpt lat="45.7366412" lon="126.6276871">
        <ele>0</ele>
        <time>2026-09-12T10:51:46.000Z</time>
      </trkpt>
      <trkpt lat="45.7366129" lon="126.6276934">
        <ele>0</ele>
        <time>2026-09-12T10:51:47.000Z</time>
      </trkpt>
      <trkpt lat="45.7365826" lon="126.6276902">
        <ele>0</ele>
        <time>2026-09-12T10:51:48.000Z</time>
      </trkpt>
      <trkpt lat="45.7365487" lon="126.6276914">
        <ele>0</ele>
        <time>2026-09-12T10:51:49.000Z</time>
      </trkpt>
      <trkpt lat="45.7365158" lon="126.6276902">
        <ele>0</ele>
        <time>2026-09-12T10:51:50.000Z</time>
      </trkpt>
      <trkpt lat="45.7364840" lon="126.6276995">
        <ele>0</ele>
        <time>2026-09-12T10:51:51.000Z</time>
      </trkpt>
      <trkpt lat="45.7364495" lon="126.6276921">
        <ele>0</ele>
        <time>2026-09-12T10:51:52.000Z</time>
      </trkpt>
      <trkpt lat="45.7364172" lon="126.6276906">
        <ele>0</ele>
        <time>2026-09-12T10:51:53.000Z</time>
      </trkpt>
      <trkpt lat="45.7363882" lon="126.6276844">
        <ele>0</ele>
        <time>2026-09-12T10:51:54.000Z</time>
      </trkpt>
      <trkpt lat="45.7363603" lon="126.6276802">
        <ele>0</ele>
        <time>2026-09-12T10:51:55.000Z</time>
      </trkpt>
      <trkpt lat="45.7363306" lon="126.6276781">
        <ele>0</ele>
        <time>2026-09-12T10:51:56.000Z</time>
      </trkpt>
      <trkpt lat="45.7362993" lon="126.6276730">
        <ele>0</ele>
        <time>2026-09-12T10:51:57.000Z</time>
      </trkpt>
      <trkpt lat="45.7362697" lon="126.6276674">
        <ele>0</ele>
        <time>2026-09-12T10:51:58.000Z</time>
      </trkpt>
      <trkpt lat="45.7362383" lon="126.6276673">
        <ele>0</ele>
        <time>2026-09-12T10:51:59.000Z</time>
      </trkpt>
      <trkpt lat="45.7362371" lon="126.6276597">
        <ele>0</ele>
        <time>2026-09-12T10:52:00.000Z</time>
      </trkpt>
      <trkpt lat="45.7362083" lon="126.6276834">
        <ele>0</ele>
        <time>2026-09-12T10:52:01.000Z</time>
      </trkpt>
      <trkpt lat="45.7361809" lon="126.6277024">
        <ele>0</ele>
        <time>2026-09-12T10:52:02.000Z</time>
      </trkpt>
      <trkpt lat="45.7361562" lon="126.6277319">
        <ele>0</ele>
        <time>2026-09-12T10:52:03.000Z</time>
      </trkpt>
      <trkpt lat="45.7361344" lon="126.6277699">
        <ele>0</ele>
        <time>2026-09-12T10:52:04.000Z</time>
      </trkpt>
      <trkpt lat="45.7361154" lon="126.6278037">
        <ele>0</ele>
        <time>2026-09-12T10:52:05.000Z</time>
      </trkpt>
      <trkpt lat="45.7360950" lon="126.6278379">
        <ele>0</ele>
        <time>2026-09-12T10:52:06.000Z</time>
      </trkpt>
      <trkpt lat="45.7360755" lon="126.6278747">
        <ele>0</ele>
        <time>2026-09-12T10:52:07.000Z</time>
      </trkpt>
      <trkpt lat="45.7360586" lon="126.6279169">
        <ele>0</ele>
        <time>2026-09-12T10:52:08.000Z</time>
      </trkpt>
      <trkpt lat="45.7360469" lon="126.6279585">
        <ele>0</ele>
        <time>2026-09-12T10:52:09.000Z</time>
      </trkpt>
      <trkpt lat="45.7360352" lon="126.6279952">
        <ele>0</ele>
        <time>2026-09-12T10:52:10.000Z</time>
      </trkpt>
      <trkpt lat="45.7360299" lon="126.6280336">
        <ele>0</ele>
        <time>2026-09-12T10:52:11.000Z</time>
      </trkpt>
      <trkpt lat="45.7360259" lon="126.6280747">
        <ele>0</ele>
        <time>2026-09-12T10:52:12.000Z</time>
      </trkpt>
      <trkpt lat="45.7360262" lon="126.6281161">
        <ele>0</ele>
        <time>2026-09-12T10:52:13.000Z</time>
      </trkpt>
      <trkpt lat="45.7360277" lon="126.6281557">
        <ele>0</ele>
        <time>2026-09-12T10:52:14.000Z</time>
      </trkpt>
      <trkpt lat="45.7360291" lon="126.6281981">
        <ele>0</ele>
        <time>2026-09-12T10:52:15.000Z</time>
      </trkpt>
      <trkpt lat="45.7360322" lon="126.6282461">
        <ele>0</ele>
        <time>2026-09-12T10:52:16.000Z</time>
      </trkpt>
      <trkpt lat="45.7360422" lon="126.6282857">
        <ele>0</ele>
        <time>2026-09-12T10:52:17.000Z</time>
      </trkpt>
      <trkpt lat="45.7360521" lon="126.6283265">
        <ele>0</ele>
        <time>2026-09-12T10:52:18.000Z</time>
      </trkpt>
      <trkpt lat="45.7360646" lon="126.6283716">
        <ele>0</ele>
        <time>2026-09-12T10:52:19.000Z</time>
      </trkpt>
      <trkpt lat="45.7360791" lon="126.6284153">
        <ele>0</ele>
        <time>2026-09-12T10:52:20.000Z</time>
      </trkpt>
      <trkpt lat="45.7360932" lon="126.6284560">
        <ele>0</ele>
        <time>2026-09-12T10:52:21.000Z</time>
      </trkpt>
      <trkpt lat="45.7361097" lon="126.6284910">
        <ele>0</ele>
        <time>2026-09-12T10:52:22.000Z</time>
      </trkpt>
      <trkpt lat="45.7361264" lon="126.6285334">
        <ele>0</ele>
        <time>2026-09-12T10:52:23.000Z</time>
      </trkpt>
      <trkpt lat="45.7361507" lon="126.6285675">
        <ele>0</ele>
        <time>2026-09-12T10:52:24.000Z</time>
      </trkpt>
      <trkpt lat="45.7361754" lon="126.6285966">
        <ele>0</ele>
        <time>2026-09-12T10:52:25.000Z</time>
      </trkpt>
      <trkpt lat="45.7361990" lon="126.6286220">
        <ele>0</ele>
        <time>2026-09-12T10:52:26.000Z</time>
      </trkpt>
      <trkpt lat="45.7362240" lon="126.6286447">
        <ele>0</ele>
        <time>2026-09-12T10:52:27.000Z</time>
      </trkpt>
      <trkpt lat="45.7362520" lon="126.6286633">
        <ele>0</ele>
        <time>2026-09-12T10:52:28.000Z</time>
      </trkpt>
      <trkpt lat="45.7362822" lon="126.6286805">
        <ele>0</ele>
        <time>2026-09-12T10:52:29.000Z</time>
      </trkpt>
      <trkpt lat="45.7363125" lon="126.6286859">
        <ele>0</ele>
        <time>2026-09-12T10:52:30.000Z</time>
      </trkpt>
      <trkpt lat="45.7363398" lon="126.6287003">
        <ele>0</ele>
        <time>2026-09-12T10:52:31.000Z</time>
      </trkpt>
      <trkpt lat="45.7363730" lon="126.6286994">
        <ele>0</ele>
        <time>2026-09-12T10:52:32.000Z</time>
      </trkpt>
      <trkpt lat="45.7364013" lon="126.6286990">
        <ele>0</ele>
        <time>2026-09-12T10:52:33.000Z</time>
      </trkpt>
      <trkpt lat="45.7364324" lon="126.6286874">
        <ele>0</ele>
        <time>2026-09-12T10:52:34.000Z</time>
      </trkpt>
      <trkpt lat="45.7364589" lon="126.6286851">
        <ele>0</ele>
        <time>2026-09-12T10:52:35.000Z</time>
      </trkpt>
      <trkpt lat="45.7364897" lon="126.6286812">
        <ele>0</ele>
        <time>2026-09-12T10:52:36.000Z</time>
      </trkpt>
      <trkpt lat="45.7365214" lon="126.6286825">
        <ele>0</ele>
        <time>2026-09-12T10:52:37.000Z</time>
      </trkpt>
      <trkpt lat="45.7365508" lon="126.6286805">
        <ele>0</ele>
        <time>2026-09-12T10:52:38.000Z</time>
      </trkpt>
      <trkpt lat="45.7365818" lon="126.6286794">
        <ele>0</ele>
        <time>2026-09-12T10:52:39.000Z</time>
      </trkpt>
      <trkpt lat="45.7366092" lon="126.6286850">
        <ele>0</ele>
        <time>2026-09-12T10:52:40.000Z</time>
      </trkpt>
      <trkpt lat="45.7366414" lon="126.6286854">
        <ele>0</ele>
        <time>2026-09-12T10:52:41.000Z</time>
      </trkpt>
      <trkpt lat="45.7366730" lon="126.6286889">
        <ele>0</ele>
        <time>2026-09-12T10:52:42.000Z</time>
      </trkpt>
      <trkpt lat="45.7367035" lon="126.6286855">
        <ele>0</ele>
        <time>2026-09-12T10:52:43.000Z</time>
      </trkpt>
      <trkpt lat="45.7367324" lon="126.6286898">
        <ele>0</ele>
        <time>2026-09-12T10:52:44.000Z</time>
      </trkpt>
      <trkpt lat="45.7367653" lon="126.6286851">
        <ele>0</ele>
        <time>2026-09-12T10:52:45.000Z</time>
      </trkpt>
      <trkpt lat="45.7367960" lon="126.6286812">
        <ele>0</ele>
        <time>2026-09-12T10:52:46.000Z</time>
      </trkpt>
      <trkpt lat="45.7368259" lon="126.6286809">
        <ele>0</ele>
        <time>2026-09-12T10:52:47.000Z</time>
      </trkpt>
      <trkpt lat="45.7368567" lon="126.6286837">
        <ele>0</ele>
        <time>2026-09-12T10:52:48.000Z</time>
      </trkpt>
      <trkpt lat="45.7368856" lon="126.6286924">
        <ele>0</ele>
        <time>2026-09-12T10:52:49.000Z</time>
      </trkpt>
      <trkpt lat="45.7369132" lon="126.6286909">
        <ele>0</ele>
        <time>2026-09-12T10:52:50.000Z</time>
      </trkpt>
      <trkpt lat="45.7369441" lon="126.6286932">
        <ele>0</ele>
        <time>2026-09-12T10:52:51.000Z</time>
      </trkpt>
      <trkpt lat="45.7369764" lon="126.6286987">
        <ele>0</ele>
        <time>2026-09-12T10:52:52.000Z</time>
      </trkpt>
      <trkpt lat="45.7370084" lon="126.6286939">
        <ele>0</ele>
        <time>2026-09-12T10:52:53.000Z</time>
      </trkpt>
      <trkpt lat="45.7370371" lon="126.6286953">
        <ele>0</ele>
        <time>2026-09-12T10:52:54.000Z</time>
      </trkpt>
      <trkpt lat="45.7370650" lon="126.6286952">
        <ele>0</ele>
        <time>2026-09-12T10:52:55.000Z</time>
      </trkpt>
      <trkpt lat="45.7370964" lon="126.6286971">
        <ele>0</ele>
        <time>2026-09-12T10:52:56.000Z</time>
      </trkpt>
      <trkpt lat="45.7371270" lon="126.6286947">
        <ele>0</ele>
        <time>2026-09-12T10:52:57.000Z</time>
      </trkpt>
      <trkpt lat="45.7371544" lon="126.6286993">
        <ele>0</ele>
        <time>2026-09-12T10:52:58.000Z</time>
      </trkpt>
      <trkpt lat="45.7371860" lon="126.6286958">
        <ele>0</ele>
        <time>2026-09-12T10:52:59.000Z</time>
      </trkpt>
      <trkpt lat="45.7372160" lon="126.6286931">
        <ele>0</ele>
        <time>2026-09-12T10:53:00.000Z</time>
      </trkpt>
      <trkpt lat="45.7372442" lon="126.6286824">
        <ele>0</ele>
        <time>2026-09-12T10:53:01.000Z</time>
      </trkpt>
      <trkpt lat="45.7372748" lon="126.6286620">
        <ele>0</ele>
        <time>2026-09-12T10:53:02.000Z</time>
      </trkpt>
      <trkpt lat="45.7373065" lon="126.6286454">
        <ele>0</ele>
        <time>2026-09-12T10:53:03.000Z</time>
      </trkpt>
      <trkpt lat="45.7373293" lon="126.6286254">
        <ele>0</ele>
        <time>2026-09-12T10:53:04.000Z</time>
      </trkpt>
      <trkpt lat="45.7373550" lon="126.6286060">
        <ele>0</ele>
        <time>2026-09-12T10:53:05.000Z</time>
      </trkpt>
      <trkpt lat="45.7373781" lon="126.6285784">
        <ele>0</ele>
        <time>2026-09-12T10:53:06.000Z</time>
      </trkpt>
      <trkpt lat="45.7373928" lon="126.6285437">
        <ele>0</ele>
        <time>2026-09-12T10:53:07.000Z</time>
      </trkpt>
      <trkpt lat="45.7374139" lon="126.6285064">
        <ele>0</ele>
        <time>2026-09-12T10:53:08.000Z</time>
      </trkpt>
      <trkpt lat="45.7374268" lon="126.6284722">
        <ele>0</ele>
        <time>2026-09-12T10:53:09.000Z</time>
      </trkpt>
      <trkpt lat="45.7374451" lon="126.6284350">
        <ele>0</ele>
        <time>2026-09-12T10:53:10.000Z</time>
      </trkpt>
      <trkpt lat="45.7374586" lon="126.6284002">
        <ele>0</ele>
        <time>2026-09-12T10:53:11.000Z</time>
      </trkpt>
      <trkpt lat="45.7374664" lon="126.6283609">
        <ele>0</ele>
        <time>2026-09-12T10:53:12.000Z</time>
      </trkpt>
      <trkpt lat="45.7374746" lon="126.6283220">
        <ele>0</ele>
        <time>2026-09-12T10:53:13.000Z</time>
      </trkpt>
      <trkpt lat="45.7374806" lon="126.6282803">
        <ele>0</ele>
        <time>2026-09-12T10:53:14.000Z</time>
      </trkpt>
      <trkpt lat="45.7374841" lon="126.6282335">
        <ele>0</ele>
        <time>2026-09-12T10:53:15.000Z</time>
      </trkpt>
      <trkpt lat="45.7374856" lon="126.6281933">
        <ele>0</ele>
        <time>2026-09-12T10:53:16.000Z</time>
      </trkpt>
      <trkpt lat="45.7374902" lon="126.6281563">
        <ele>0</ele>
        <time>2026-09-12T10:53:17.000Z</time>
      </trkpt>
      <trkpt lat="45.7374925" lon="126.6281135">
        <ele>0</ele>
        <time>2026-09-12T10:53:18.000Z</time>
      </trkpt>
      <trkpt lat="45.7374935" lon="126.6280792">
        <ele>0</ele>
        <time>2026-09-12T10:53:19.000Z</time>
      </trkpt>
      <trkpt lat="45.7374971" lon="126.6280373">
        <ele>0</ele>
        <time>2026-09-12T10:53:20.000Z</time>
      </trkpt>
      <trkpt lat="45.7374971" lon="126.6279931">
        <ele>0</ele>
        <time>2026-09-12T10:53:21.000Z</time>
      </trkpt>
      <trkpt lat="45.7374866" lon="126.6279436">
        <ele>0</ele>
        <time>2026-09-12T10:53:22.000Z</time>
      </trkpt>
      <trkpt lat="45.7374758" lon="126.6278979">
        <ele>0</ele>
        <time>2026-09-12T10:53:23.000Z</time>
      </trkpt>
      <trkpt lat="45.7374654" lon="126.6278606">
        <ele>0</ele>
        <time>2026-09-12T10:53:24.000Z</time>
      </trkpt>
      <trkpt lat="45.7374543" lon="126.6278169">
        <ele>0</ele>
        <time>2026-09-12T10:53:25.000Z</time>
      </trkpt>
      <trkpt lat="45.7374431" lon="126.6277780">
        <ele>0</ele>
        <time>2026-09-12T10:53:26.000Z</time>
      </trkpt>
      <trkpt lat="45.7374252" lon="126.6277515">
        <ele>0</ele>
        <time>2026-09-12T10:53:27.000Z</time>
      </trkpt>
      <trkpt lat="45.7374068" lon="126.6277269">
        <ele>0</ele>
        <time>2026-09-12T10:53:28.000Z</time>
      </trkpt>
      <trkpt lat="45.7373791" lon="126.6277100">
        <ele>0</ele>
        <time>2026-09-12T10:53:29.000Z</time>
      </trkpt>
      <trkpt lat="45.7373499" lon="126.6276942">
        <ele>0</ele>
        <time>2026-09-12T10:53:30.000Z</time>
      </trkpt>
      <trkpt lat="45.7373433" lon="126.6276919">
        <ele>0</ele>
        <time>2026-09-12T10:53:31.000Z</time>
      </trkpt>
      <trkpt lat="45.7373153" lon="126.6276989">
        <ele>0</ele>
        <time>2026-09-12T10:53:32.000Z</time>
      </trkpt>
      <trkpt lat="45.7372836" lon="126.6277007">
        <ele>0</ele>
        <time>2026-09-12T10:53:33.000Z</time>
      </trkpt>
      <trkpt lat="45.7372519" lon="126.6276986">
        <ele>0</ele>
        <time>2026-09-12T10:53:34.000Z</time>
      </trkpt>
      <trkpt lat="45.7372216" lon="126.6277008">
        <ele>0</ele>
        <time>2026-09-12T10:53:35.000Z</time>
      </trkpt>
      <trkpt lat="45.7371908" lon="126.6277053">
        <ele>0</ele>
        <time>2026-09-12T10:53:36.000Z</time>
      </trkpt>
      <trkpt lat="45.7371593" lon="126.6277010">
        <ele>0</ele>
        <time>2026-09-12T10:53:37.000Z</time>
      </trkpt>
      <trkpt lat="45.7371235" lon="126.6277009">
        <ele>0</ele>
        <time>2026-09-12T10:53:38.000Z</time>
      </trkpt>
      <trkpt lat="45.7370935" lon="126.6277076">
        <ele>0</ele>
        <time>2026-09-12T10:53:39.000Z</time>
      </trkpt>
      <trkpt lat="45.7370625" lon="126.6277066">
        <ele>0</ele>
        <time>2026-09-12T10:53:40.000Z</time>
      </trkpt>
      <trkpt lat="45.7370304" lon="126.6277083">
        <ele>0</ele>
        <time>2026-09-12T10:53:41.000Z</time>
      </trkpt>
      <trkpt lat="45.7370016" lon="126.6277052">
        <ele>0</ele>
        <time>2026-09-12T10:53:42.000Z</time>
      </trkpt>
      <trkpt lat="45.7369726" lon="126.6277055">
        <ele>0</ele>
        <time>2026-09-12T10:53:43.000Z</time>
      </trkpt>
      <trkpt lat="45.7369475" lon="126.6277084">
        <ele>0</ele>
        <time>2026-09-12T10:53:44.000Z</time>
      </trkpt>
      <trkpt lat="45.7369143" lon="126.6277044">
        <ele>0</ele>
        <time>2026-09-12T10:53:45.000Z</time>
      </trkpt>
      <trkpt lat="45.7368811" lon="126.6277047">
        <ele>0</ele>
        <time>2026-09-12T10:53:46.000Z</time>
      </trkpt>
      <trkpt lat="45.7368503" lon="126.6277056">
        <ele>0</ele>
        <time>2026-09-12T10:53:47.000Z</time>
      </trkpt>
      <trkpt lat="45.7368210" lon="126.6277080">
        <ele>0</ele>
        <time>2026-09-12T10:53:48.000Z</time>
      </trkpt>
      <trkpt lat="45.7367911" lon="126.6277105">
        <ele>0</ele>
        <time>2026-09-12T10:53:49.000Z</time>
      </trkpt>
      <trkpt lat="45.7367567" lon="126.6277185">
        <ele>0</ele>
        <time>2026-09-12T10:53:50.000Z</time>
      </trkpt>
      <trkpt lat="45.7367270" lon="126.6277171">
        <ele>0</ele>
        <time>2026-09-12T10:53:51.000Z</time>
      </trkpt>
      <trkpt lat="45.7366999" lon="126.6277107">
        <ele>0</ele>
        <time>2026-09-12T10:53:52.000Z</time>
      </trkpt>
      <trkpt lat="45.7366648" lon="126.6277129">
        <ele>0</ele>
        <time>2026-09-12T10:53:53.000Z</time>
      </trkpt>
      <trkpt lat="45.7366364" lon="126.6277105">
        <ele>0</ele>
        <time>2026-09-12T10:53:54.000Z</time>
      </trkpt>
      <trkpt lat="45.7366083" lon="126.6277125">
        <ele>0</ele>
        <time>2026-09-12T10:53:55.000Z</time>
      </trkpt>
      <trkpt lat="45.7365771" lon="126.6277119">
        <ele>0</ele>
        <time>2026-09-12T10:53:56.000Z</time>
      </trkpt>
      <trkpt lat="45.7365476" lon="126.6277113">
        <ele>0</ele>
        <time>2026-09-12T10:53:57.000Z</time>
      </trkpt>
      <trkpt lat="45.7365194" lon="126.6277114">
        <ele>0</ele>
        <time>2026-09-12T10:53:58.000Z</time>
      </trkpt>
      <trkpt lat="45.7364900" lon="126.6277028">
        <ele>0</ele>
        <time>2026-09-12T10:53:59.000Z</time>
      </trkpt>
      <trkpt lat="45.7364573" lon="126.6276933">
        <ele>0</ele>
        <time>2026-09-12T10:54:00.000Z</time>
      </trkpt>
      <trkpt lat="45.7364250" lon="126.6276939">
        <ele>0</ele>
        <time>2026-09-12T10:54:01.000Z</time>
      </trkpt>
      <trkpt lat="45.7363969" lon="126.6276924">
        <ele>0</ele>
        <time>2026-09-12T10:54:02.000Z</time>
      </trkpt>
      <trkpt lat="45.7363650" lon="126.6276835">
        <ele>0</ele>
        <time>2026-09-12T10:54:03.000Z</time>
      </trkpt>
      <trkpt lat="45.7363376" lon="126.6276827">
        <ele>0</ele>
        <time>2026-09-12T10:54:04.000Z</time>
      </trkpt>
      <trkpt lat="45.7363075" lon="126.6276810">
        <ele>0</ele>
        <time>2026-09-12T10:54:05.000Z</time>
      </trkpt>
      <trkpt lat="45.7362726" lon="126.6276766">
        <ele>0</ele>
        <time>2026-09-12T10:54:06.000Z</time>
      </trkpt>
      <trkpt lat="45.7362434" lon="126.6276703">
        <ele>0</ele>
        <time>2026-09-12T10:54:07.000Z</time>
      </trkpt>
      <trkpt lat="45.7362282" lon="126.6276662">
        <ele>0</ele>
        <time>2026-09-12T10:54:08.000Z</time>
      </trkpt>
      <trkpt lat="45.7362083" lon="126.6276794">
        <ele>0</ele>
        <time>2026-09-12T10:54:09.000Z</time>
      </trkpt>
      <trkpt lat="45.7361865" lon="126.6276978">
        <ele>0</ele>
        <time>2026-09-12T10:54:10.000Z</time>
      </trkpt>
      <trkpt lat="45.7361618" lon="126.6277221">
        <ele>0</ele>
        <time>2026-09-12T10:54:11.000Z</time>
      </trkpt>
      <trkpt lat="45.7361396" lon="126.6277582">
        <ele>0</ele>
        <time>2026-09-12T10:54:12.000Z</time>
      </trkpt>
      <trkpt lat="45.7361173" lon="126.6277928">
        <ele>0</ele>
        <time>2026-09-12T10:54:13.000Z</time>
      </trkpt>
      <trkpt lat="45.7360957" lon="126.6278272">
        <ele>0</ele>
        <time>2026-09-12T10:54:14.000Z</time>
      </trkpt>
      <trkpt lat="45.7360811" lon="126.6278683">
        <ele>0</ele>
        <time>2026-09-12T10:54:15.000Z</time>
      </trkpt>
      <trkpt lat="45.7360606" lon="126.6279064">
        <ele>0</ele>
        <time>2026-09-12T10:54:16.000Z</time>
      </trkpt>
      <trkpt lat="45.7360485" lon="126.6279492">
        <ele>0</ele>
        <time>2026-09-12T10:54:17.000Z</time>
      </trkpt>
      <trkpt lat="45.7360381" lon="126.6279956">
        <ele>0</ele>
        <time>2026-09-12T10:54:18.000Z</time>
      </trkpt>
      <trkpt lat="45.7360323" lon="126.6280319">
        <ele>0</ele>
        <time>2026-09-12T10:54:19.000Z</time>
      </trkpt>
      <trkpt lat="45.7360324" lon="126.6280725">
        <ele>0</ele>
        <time>2026-09-12T10:54:20.000Z</time>
      </trkpt>
      <trkpt lat="45.7360263" lon="126.6281181">
        <ele>0</ele>
        <time>2026-09-12T10:54:21.000Z</time>
      </trkpt>
      <trkpt lat="45.7360228" lon="126.6281638">
        <ele>0</ele>
        <time>2026-09-12T10:54:22.000Z</time>
      </trkpt>
      <trkpt lat="45.7360218" lon="126.6282033">
        <ele>0</ele>
        <time>2026-09-12T10:54:23.000Z</time>
      </trkpt>
      <trkpt lat="45.7360251" lon="126.6282471">
        <ele>0</ele>
        <time>2026-09-12T10:54:24.000Z</time>
      </trkpt>
      <trkpt lat="45.7360308" lon="126.6282947">
        <ele>0</ele>
        <time>2026-09-12T10:54:25.000Z</time>
      </trkpt>
      <trkpt lat="45.7360433" lon="126.6283347">
        <ele>0</ele>
        <time>2026-09-12T10:54:26.000Z</time>
      </trkpt>
      <trkpt lat="45.7360581" lon="126.6283673">
        <ele>0</ele>
        <time>2026-09-12T10:54:27.000Z</time>
      </trkpt>
      <trkpt lat="45.7360708" lon="126.6284072">
        <ele>0</ele>
        <time>2026-09-12T10:54:28.000Z</time>
      </trkpt>
      <trkpt lat="45.7360803" lon="126.6284486">
        <ele>0</ele>
        <time>2026-09-12T10:54:29.000Z</time>
      </trkpt>
      <trkpt lat="45.7360943" lon="126.6284878">
        <ele>0</ele>
        <time>2026-09-12T10:54:30.000Z</time>
      </trkpt>
      <trkpt lat="45.7361102" lon="126.6285172">
        <ele>0</ele>
        <time>2026-09-12T10:54:31.000Z</time>
      </trkpt>
      <trkpt lat="45.7361266" lon="126.6285505">
        <ele>0</ele>
        <time>2026-09-12T10:54:32.000Z</time>
      </trkpt>
      <trkpt lat="45.7361497" lon="126.6285807">
        <ele>0</ele>
        <time>2026-09-12T10:54:33.000Z</time>
      </trkpt>
      <trkpt lat="45.7361752" lon="126.6286063">
        <ele>0</ele>
        <time>2026-09-12T10:54:34.000Z</time>
      </trkpt>
      <trkpt lat="45.7362050" lon="126.6286267">
        <ele>0</ele>
        <time>2026-09-12T10:54:35.000Z</time>
      </trkpt>
      <trkpt lat="45.7362322" lon="126.6286461">
        <ele>0</ele>
        <time>2026-09-12T10:54:36.000Z</time>
      </trkpt>
      <trkpt lat="45.7362589" lon="126.6286699">
        <ele>0</ele>
        <time>2026-09-12T10:54:37.000Z</time>
      </trkpt>
      <trkpt lat="45.7362907" lon="126.6286852">
        <ele>0</ele>
        <time>2026-09-12T10:54:38.000Z</time>
      </trkpt>
      <trkpt lat="45.7363194" lon="126.6286959">
        <ele>0</ele>
        <time>2026-09-12T10:54:39.000Z</time>
      </trkpt>
      <trkpt lat="45.7363463" lon="126.6287017">
        <ele>0</ele>
        <time>2026-09-12T10:54:40.000Z</time>
      </trkpt>
      <trkpt lat="45.7363761" lon="126.6286986">
        <ele>0</ele>
        <time>2026-09-12T10:54:41.000Z</time>
      </trkpt>
      <trkpt lat="45.7364064" lon="126.6287001">
        <ele>0</ele>
        <time>2026-09-12T10:54:42.000Z</time>
      </trkpt>
      <trkpt lat="45.7364408" lon="126.6287006">
        <ele>0</ele>
        <time>2026-09-12T10:54:43.000Z</time>
      </trkpt>
      <trkpt lat="45.7364711" lon="126.6286989">
        <ele>0</ele>
        <time>2026-09-12T10:54:44.000Z</time>
      </trkpt>
      <trkpt lat="45.7364985" lon="126.6286945">
        <ele>0</ele>
        <time>2026-09-12T10:54:45.000Z</time>
      </trkpt>
      <trkpt lat="45.7365288" lon="126.6286981">
        <ele>0</ele>
        <time>2026-09-12T10:54:46.000Z</time>
      </trkpt>
      <trkpt lat="45.7365560" lon="126.6287010">
        <ele>0</ele>
        <time>2026-09-12T10:54:47.000Z</time>
      </trkpt>
      <trkpt lat="45.7365841" lon="126.6287064">
        <ele>0</ele>
        <time>2026-09-12T10:54:48.000Z</time>
      </trkpt>
      <trkpt lat="45.7366131" lon="126.6287050">
        <ele>0</ele>
        <time>2026-09-12T10:54:49.000Z</time>
      </trkpt>
      <trkpt lat="45.7366425" lon="126.6287079">
        <ele>0</ele>
        <time>2026-09-12T10:54:50.000Z</time>
      </trkpt>
      <trkpt lat="45.7366740" lon="126.6287040">
        <ele>0</ele>
        <time>2026-09-12T10:54:51.000Z</time>
      </trkpt>
      <trkpt lat="45.7367059" lon="126.6286993">
        <ele>0</ele>
        <time>2026-09-12T10:54:52.000Z</time>
      </trkpt>
      <trkpt lat="45.7367361" lon="126.6286942">
        <ele>0</ele>
        <time>2026-09-12T10:54:53.000Z</time>
      </trkpt>
      <trkpt lat="45.7367643" lon="126.6286923">
        <ele>0</ele>
        <time>2026-09-12T10:54:54.000Z</time>
      </trkpt>
      <trkpt lat="45.7367973" lon="126.6286937">
        <ele>0</ele>
        <time>2026-09-12T10:54:55.000Z</time>
      </trkpt>
      <trkpt lat="45.7368284" lon="126.6286912">
        <ele>0</ele>
        <time>2026-09-12T10:54:56.000Z</time>
      </trkpt>
      <trkpt lat="45.7368545" lon="126.6286960">
        <ele>0</ele>
        <time>2026-09-12T10:54:57.000Z</time>
      </trkpt>
      <trkpt lat="45.7368815" lon="126.6286937">
        <ele>0</ele>
        <time>2026-09-12T10:54:58.000Z</time>
      </trkpt>
      <trkpt lat="45.7369124" lon="126.6286931">
        <ele>0</ele>
        <time>2026-09-12T10:54:59.000Z</time>
      </trkpt>
      <trkpt lat="45.7369407" lon="126.6286905">
        <ele>0</ele>
        <time>2026-09-12T10:55:00.000Z</time>
      </trkpt>
      <trkpt lat="45.7369714" lon="126.6286960">
        <ele>0</ele>
        <time>2026-09-12T10:55:01.000Z</time>
      </trkpt>
      <trkpt lat="45.7369994" lon="126.6286962">
        <ele>0</ele>
        <time>2026-09-12T10:55:02.000Z</time>
      </trkpt>
      <trkpt lat="45.7370270" lon="126.6286992">
        <ele>0</ele>
        <time>2026-09-12T10:55:03.000Z</time>
      </trkpt>
      <trkpt lat="45.7370566" lon="126.6286975">
        <ele>0</ele>
        <time>2026-09-12T10:55:04.000Z</time>
      </trkpt>
      <trkpt lat="45.7370899" lon="126.6286917">
        <ele>0</ele>
        <time>2026-09-12T10:55:05.000Z</time>
      </trkpt>
      <trkpt lat="45.7371169" lon="126.6286936">
        <ele>0</ele>
        <time>2026-09-12T10:55:06.000Z</time>
      </trkpt>
      <trkpt lat="45.7371444" lon="126.6286878">
        <ele>0</ele>
        <time>2026-09-12T10:55:07.000Z</time>
      </trkpt>
      <trkpt lat="45.7371785" lon="126.6286864">
        <ele>0</ele>
        <time>2026-09-12T10:55:08.000Z</time>
      </trkpt>
      <trkpt lat="45.7372073" lon="126.6286788">
        <ele>0</ele>
        <time>2026-09-12T10:55:09.000Z</time>
      </trkpt>
      <trkpt lat="45.7372405" lon="126.6286700">
        <ele>0</ele>
        <time>2026-09-12T10:55:10.000Z</time>
      </trkpt>
      <trkpt lat="45.7372711" lon="126.6286548">
        <ele>0</ele>
        <time>2026-09-12T10:55:11.000Z</time>
      </trkpt>
      <trkpt lat="45.7373005" lon="126.6286353">
        <ele>0</ele>
        <time>2026-09-12T10:55:12.000Z</time>
      </trkpt>
      <trkpt lat="45.7373299" lon="126.6286120">
        <ele>0</ele>
        <time>2026-09-12T10:55:13.000Z</time>
      </trkpt>
      <trkpt lat="45.7373551" lon="126.6285887">
        <ele>0</ele>
        <time>2026-09-12T10:55:14.000Z</time>
      </trkpt>
      <trkpt lat="45.7373752" lon="126.6285620">
        <ele>0</ele>
        <time>2026-09-12T10:55:15.000Z</time>
      </trkpt>
      <trkpt lat="45.7373978" lon="126.6285335">
        <ele>0</ele>
        <time>2026-09-12T10:55:16.000Z</time>
      </trkpt>
      <trkpt lat="45.7374173" lon="126.6285091">
        <ele>0</ele>
        <time>2026-09-12T10:55:17.000Z</time>
      </trkpt>
      <trkpt lat="45.7374332" lon="126.6284706">
        <ele>0</ele>
        <time>2026-09-12T10:55:18.000Z</time>
      </trkpt>
      <trkpt lat="45.7374472" lon="126.6284355">
        <ele>0</ele>
        <time>2026-09-12T10:55:19.000Z</time>
      </trkpt>
      <trkpt lat="45.7374630" lon="126.6283951">
        <ele>0</ele>
        <time>2026-09-12T10:55:20.000Z</time>
      </trkpt>
      <trkpt lat="45.7374773" lon="126.6283472">
        <ele>0</ele>
        <time>2026-09-12T10:55:21.000Z</time>
      </trkpt>
      <trkpt lat="45.7374847" lon="126.6283084">
        <ele>0</ele>
        <time>2026-09-12T10:55:22.000Z</time>
      </trkpt>
      <trkpt lat="45.7374962" lon="126.6282677">
        <ele>0</ele>
        <time>2026-09-12T10:55:23.000Z</time>
      </trkpt>
      <trkpt lat="45.7375017" lon="126.6282291">
        <ele>0</ele>
        <time>2026-09-12T10:55:24.000Z</time>
      </trkpt>
      <trkpt lat="45.7375037" lon="126.6281868">
        <ele>0</ele>
        <time>2026-09-12T10:55:25.000Z</time>
      </trkpt>
      <trkpt lat="45.7375093" lon="126.6281423">
        <ele>0</ele>
        <time>2026-09-12T10:55:26.000Z</time>
      </trkpt>
      <trkpt lat="45.7375086" lon="126.6280930">
        <ele>0</ele>
        <time>2026-09-12T10:55:27.000Z</time>
      </trkpt>
      <trkpt lat="45.7375083" lon="126.6280557">
        <ele>0</ele>
        <time>2026-09-12T10:55:28.000Z</time>
      </trkpt>
      <trkpt lat="45.7375048" lon="126.6280137">
        <ele>0</ele>
        <time>2026-09-12T10:55:29.000Z</time>
      </trkpt>
      <trkpt lat="45.7375007" lon="126.6279726">
        <ele>0</ele>
        <time>2026-09-12T10:55:30.000Z</time>
      </trkpt>
      <trkpt lat="45.7374969" lon="126.6279362">
        <ele>0</ele>
        <time>2026-09-12T10:55:31.000Z</time>
      </trkpt>
      <trkpt lat="45.7374888" lon="126.6278985">
        <ele>0</ele>
        <time>2026-09-12T10:55:32.000Z</time>
      </trkpt>
      <trkpt lat="45.7374770" lon="126.6278642">
        <ele>0</ele>
        <time>2026-09-12T10:55:33.000Z</time>
      </trkpt>
      <trkpt lat="45.7374626" lon="126.6278313">
        <ele>0</ele>
        <time>2026-09-12T10:55:34.000Z</time>
      </trkpt>
      <trkpt lat="45.7374521" lon="126.6277903">
        <ele>0</ele>
        <time>2026-09-12T10:55:35.000Z</time>
      </trkpt>
      <trkpt lat="45.7374327" lon="126.6277571">
        <ele>0</ele>
        <time>2026-09-12T10:55:36.000Z</time>
      </trkpt>
      <trkpt lat="45.7374079" lon="126.6277249">
        <ele>0</ele>
        <time>2026-09-12T10:55:37.000Z</time>
      </trkpt>
      <trkpt lat="45.7373892" lon="126.6276984">
        <ele>0</ele>
        <time>2026-09-12T10:55:38.000Z</time>
      </trkpt>
      <trkpt lat="45.7373668" lon="126.6276749">
        <ele>0</ele>
        <time>2026-09-12T10:55:39.000Z</time>
      </trkpt>
      <trkpt lat="45.7373374" lon="126.6276548">
        <ele>0</ele>
        <time>2026-09-12T10:55:40.000Z</time>
      </trkpt>
      <trkpt lat="45.7373312" lon="126.6276610">
        <ele>0</ele>
        <time>2026-09-12T10:55:41.000Z</time>
      </trkpt>
      <trkpt lat="45.7373030" lon="126.6276591">
        <ele>0</ele>
        <time>2026-09-12T10:55:42.000Z</time>
      </trkpt>
      <trkpt lat="45.7372715" lon="126.6276650">
        <ele>0</ele>
        <time>2026-09-12T10:55:43.000Z</time>
      </trkpt>
      <trkpt lat="45.7372409" lon="126.6276677">
        <ele>0</ele>
        <time>2026-09-12T10:55:44.000Z</time>
      </trkpt>
      <trkpt lat="45.7372181" lon="126.6276719">
        <ele>0</ele>
        <time>2026-09-12T10:55:45.000Z</time>
      </trkpt>
      <trkpt lat="45.7371860" lon="126.6276783">
        <ele>0</ele>
        <time>2026-09-12T10:55:46.000Z</time>
      </trkpt>
      <trkpt lat="45.7371565" lon="126.6276799">
        <ele>0</ele>
        <time>2026-09-12T10:55:47.000Z</time>
      </trkpt>
      <trkpt lat="45.7371266" lon="126.6276856">
        <ele>0</ele>
        <time>2026-09-12T10:55:48.000Z</time>
      </trkpt>
      <trkpt lat="45.7370979" lon="126.6276910">
        <ele>0</ele>
        <time>2026-09-12T10:55:49.000Z</time>
      </trkpt>
      <trkpt lat="45.7370672" lon="126.6276956">
        <ele>0</ele>
        <time>2026-09-12T10:55:50.000Z</time>
      </trkpt>
      <trkpt lat="45.7370380" lon="126.6276973">
        <ele>0</ele>
        <time>2026-09-12T10:55:51.000Z</time>
      </trkpt>
      <trkpt lat="45.7370031" lon="126.6276998">
        <ele>0</ele>
        <time>2026-09-12T10:55:52.000Z</time>
      </trkpt>
      <trkpt lat="45.7369701" lon="126.6277002">
        <ele>0</ele>
        <time>2026-09-12T10:55:53.000Z</time>
      </trkpt>
      <trkpt lat="45.7369419" lon="126.6276974">
        <ele>0</ele>
        <time>2026-09-12T10:55:54.000Z</time>
      </trkpt>
      <trkpt lat="45.7369118" lon="126.6276980">
        <ele>0</ele>
        <time>2026-09-12T10:55:55.000Z</time>
      </trkpt>
      <trkpt lat="45.7368814" lon="126.6276938">
        <ele>0</ele>
        <time>2026-09-12T10:55:56.000Z</time>
      </trkpt>
      <trkpt lat="45.7368509" lon="126.6276962">
        <ele>0</ele>
        <time>2026-09-12T10:55:57.000Z</time>
      </trkpt>
      <trkpt lat="45.7368179" lon="126.6276986">
        <ele>0</ele>
        <time>2026-09-12T10:55:58.000Z</time>
      </trkpt>
      <trkpt lat="45.7367868" lon="126.6276945">
        <ele>0</ele>
        <time>2026-09-12T10:55:59.000Z</time>
      </trkpt>
      <trkpt lat="45.7367526" lon="126.6276994">
        <ele>0</ele>
        <time>2026-09-12T10:56:00.000Z</time>
      </trkpt>
      <trkpt lat="45.7367230" lon="126.6277027">
        <ele>0</ele>
        <time>2026-09-12T10:56:01.000Z</time>
      </trkpt>
      <trkpt lat="45.7366915" lon="126.6277002">
        <ele>0</ele>
        <time>2026-09-12T10:56:02.000Z</time>
      </trkpt>
      <trkpt lat="45.7366584" lon="126.6277008">
        <ele>0</ele>
        <time>2026-09-12T10:56:03.000Z</time>
      </trkpt>
      <trkpt lat="45.7366251" lon="126.6276969">
        <ele>0</ele>
        <time>2026-09-12T10:56:04.000Z</time>
      </trkpt>
      <trkpt lat="45.7365934" lon="126.6276903">
        <ele>0</ele>
        <time>2026-09-12T10:56:05.000Z</time>
      </trkpt>
      <trkpt lat="45.7365670" lon="126.6276862">
        <ele>0</ele>
        <time>2026-09-12T10:56:06.000Z</time>
      </trkpt>
      <trkpt lat="45.7365351" lon="126.6276896">
        <ele>0</ele>
        <time>2026-09-12T10:56:07.000Z</time>
      </trkpt>
      <trkpt lat="45.7365015" lon="126.6276878">
        <ele>0</ele>
        <time>2026-09-12T10:56:08.000Z</time>
      </trkpt>
      <trkpt lat="45.7364702" lon="126.6276912">
        <ele>0</ele>
        <time>2026-09-12T10:56:09.000Z</time>
      </trkpt>
      <trkpt lat="45.7364441" lon="126.6276905">
        <ele>0</ele>
        <time>2026-09-12T10:56:10.000Z</time>
      </trkpt>
      <trkpt lat="45.7364143" lon="126.6276850">
        <ele>0</ele>
        <time>2026-09-12T10:56:11.000Z</time>
      </trkpt>
      <trkpt lat="45.7363868" lon="126.6276832">
        <ele>0</ele>
        <time>2026-09-12T10:56:12.000Z</time>
      </trkpt>
      <trkpt lat="45.7363550" lon="126.6276828">
        <ele>0</ele>
        <time>2026-09-12T10:56:13.000Z</time>
      </trkpt>
      <trkpt lat="45.7363237" lon="126.6276780">
        <ele>0</ele>
        <time>2026-09-12T10:56:14.000Z</time>
      </trkpt>
      <trkpt lat="45.7362947" lon="126.6276804">
        <ele>0</ele>
        <time>2026-09-12T10:56:15.000Z</time>
      </trkpt>
      <trkpt lat="45.7362627" lon="126.6276722">
        <ele>0</ele>
        <time>2026-09-12T10:56:16.000Z</time>
      </trkpt>
      <trkpt lat="45.7362292" lon="126.6276677">
        <ele>0</ele>
        <time>2026-09-12T10:56:17.000Z</time>
      </trkpt>
      <trkpt lat="45.7362214" lon="126.6276669">
        <ele>0</ele>
        <time>2026-09-12T10:56:18.000Z</time>
      </trkpt>
      <trkpt lat="45.7361950" lon="126.6276835">
        <ele>0</ele>
        <time>2026-09-12T10:56:19.000Z</time>
      </trkpt>
      <trkpt lat="45.7361675" lon="126.6277032">
        <ele>0</ele>
        <time>2026-09-12T10:56:20.000Z</time>
      </trkpt>
      <trkpt lat="45.7361394" lon="126.6277266">
        <ele>0</ele>
        <time>2026-09-12T10:56:21.000Z</time>
      </trkpt>
      <trkpt lat="45.7361191" lon="126.6277682">
        <ele>0</ele>
        <time>2026-09-12T10:56:22.000Z</time>
      </trkpt>
      <trkpt lat="45.7360988" lon="126.6278010">
        <ele>0</ele>
        <time>2026-09-12T10:56:23.000Z</time>
      </trkpt>
      <trkpt lat="45.7360823" lon="126.6278397">
        <ele>0</ele>
        <time>2026-09-12T10:56:24.000Z</time>
      </trkpt>
      <trkpt lat="45.7360708" lon="126.6278743">
        <ele>0</ele>
        <time>2026-09-12T10:56:25.000Z</time>
      </trkpt>
      <trkpt lat="45.7360573" lon="126.6279155">
        <ele>0</ele>
        <time>2026-09-12T10:56:26.000Z</time>
      </trkpt>
      <trkpt lat="45.7360433" lon="126.6279575">
        <ele>0</ele>
        <time>2026-09-12T10:56:27.000Z</time>
      </trkpt>
      <trkpt lat="45.7360260" lon="126.6279995">
        <ele>0</ele>
        <time>2026-09-12T10:56:28.000Z</time>
      </trkpt>
      <trkpt lat="45.7360217" lon="126.6280353">
        <ele>0</ele>
        <time>2026-09-12T10:56:29.000Z</time>
      </trkpt>
      <trkpt lat="45.7360141" lon="126.6280748">
        <ele>0</ele>
        <time>2026-09-12T10:56:30.000Z</time>
      </trkpt>
      <trkpt lat="45.7360117" lon="126.6281160">
        <ele>0</ele>
        <time>2026-09-12T10:56:31.000Z</time>
      </trkpt>
      <trkpt lat="45.7360128" lon="126.6281565">
        <ele>0</ele>
        <time>2026-09-12T10:56:32.000Z</time>
      </trkpt>
      <trkpt lat="45.7360158" lon="126.6281995">
        <ele>0</ele>
        <time>2026-09-12T10:56:33.000Z</time>
      </trkpt>
      <trkpt lat="45.7360232" lon="126.6282345">
        <ele>0</ele>
        <time>2026-09-12T10:56:34.000Z</time>
      </trkpt>
      <trkpt lat="45.7360277" lon="126.6282774">
        <ele>0</ele>
        <time>2026-09-12T10:56:35.000Z</time>
      </trkpt>
      <trkpt lat="45.7360439" lon="126.6283171">
        <ele>0</ele>
        <time>2026-09-12T10:56:36.000Z</time>
      </trkpt>
      <trkpt lat="45.7360607" lon="126.6283527">
        <ele>0</ele>
        <time>2026-09-12T10:56:37.000Z</time>
      </trkpt>
      <trkpt lat="45.7360786" lon="126.6283916">
        <ele>0</ele>
        <time>2026-09-12T10:56:38.000Z</time>
      </trkpt>
      <trkpt lat="45.7360877" lon="126.6284366">
        <ele>0</ele>
        <time>2026-09-12T10:56:39.000Z</time>
      </trkpt>
      <trkpt lat="45.7361033" lon="126.6284765">
        <ele>0</ele>
        <time>2026-09-12T10:56:40.000Z</time>
      </trkpt>
      <trkpt lat="45.7361164" lon="126.6285166">
        <ele>0</ele>
        <time>2026-09-12T10:56:41.000Z</time>
      </trkpt>
      <trkpt lat="45.7361364" lon="126.6285478">
        <ele>0</ele>
        <time>2026-09-12T10:56:42.000Z</time>
      </trkpt>
      <trkpt lat="45.7361587" lon="126.6285758">
        <ele>0</ele>
        <time>2026-09-12T10:56:43.000Z</time>
      </trkpt>
      <trkpt lat="45.7361822" lon="126.6286089">
        <ele>0</ele>
        <time>2026-09-12T10:56:44.000Z</time>
      </trkpt>
      <trkpt lat="45.7362104" lon="126.6286361">
        <ele>0</ele>
        <time>2026-09-12T10:56:45.000Z</time>
      </trkpt>
      <trkpt lat="45.7362323" lon="126.6286577">
        <ele>0</ele>
        <time>2026-09-12T10:56:46.000Z</time>
      </trkpt>
      <trkpt lat="45.7362590" lon="126.6286739">
        <ele>0</ele>
        <time>2026-09-12T10:56:47.000Z</time>
      </trkpt>
      <trkpt lat="45.7362861" lon="126.6286820">
        <ele>0</ele>
        <time>2026-09-12T10:56:48.000Z</time>
      </trkpt>
      <trkpt lat="45.7363178" lon="126.6286932">
        <ele>0</ele>
        <time>2026-09-12T10:56:49.000Z</time>
      </trkpt>
      <trkpt lat="45.7363466" lon="126.6286915">
        <ele>0</ele>
        <time>2026-09-12T10:56:50.000Z</time>
      </trkpt>
      <trkpt lat="45.7363760" lon="126.6286942">
        <ele>0</ele>
        <time>2026-09-12T10:56:51.000Z</time>
      </trkpt>
      <trkpt lat="45.7364118" lon="126.6286983">
        <ele>0</ele>
        <time>2026-09-12T10:56:52.000Z</time>
      </trkpt>
      <trkpt lat="45.7364417" lon="126.6286903">
        <ele>0</ele>
        <time>2026-09-12T10:56:53.000Z</time>
      </trkpt>
      <trkpt lat="45.7364714" lon="126.6286905">
        <ele>0</ele>
        <time>2026-09-12T10:56:54.000Z</time>
      </trkpt>
      <trkpt lat="45.7364982" lon="126.6286854">
        <ele>0</ele>
        <time>2026-09-12T10:56:55.000Z</time>
      </trkpt>
      <trkpt lat="45.7365258" lon="126.6286897">
        <ele>0</ele>
        <time>2026-09-12T10:56:56.000Z</time>
      </trkpt>
      <trkpt lat="45.7365529" lon="126.6286884">
        <ele>0</ele>
        <time>2026-09-12T10:56:57.000Z</time>
      </trkpt>
      <trkpt lat="45.7365789" lon="126.6286849">
        <ele>0</ele>
        <time>2026-09-12T10:56:58.000Z</time>
      </trkpt>
      <trkpt lat="45.7366137" lon="126.6286893">
        <ele>0</ele>
        <time>2026-09-12T10:56:59.000Z</time>
      </trkpt>
      <trkpt lat="45.7366471" lon="126.6286905">
        <ele>0</ele>
        <time>2026-09-12T10:57:00.000Z</time>
      </trkpt>
      <trkpt lat="45.7366730" lon="126.6286872">
        <ele>0</ele>
        <time>2026-09-12T10:57:01.000Z</time>
      </trkpt>
      <trkpt lat="45.7367046" lon="126.6286816">
        <ele>0</ele>
        <time>2026-09-12T10:57:02.000Z</time>
      </trkpt>
      <trkpt lat="45.7367380" lon="126.6286800">
        <ele>0</ele>
        <time>2026-09-12T10:57:03.000Z</time>
      </trkpt>
      <trkpt lat="45.7367681" lon="126.6286856">
        <ele>0</ele>
        <time>2026-09-12T10:57:04.000Z</time>
      </trkpt>
      <trkpt lat="45.7368016" lon="126.6286848">
        <ele>0</ele>
        <time>2026-09-12T10:57:05.000Z</time>
      </trkpt>
      <trkpt lat="45.7368325" lon="126.6286860">
        <ele>0</ele>
        <time>2026-09-12T10:57:06.000Z</time>
      </trkpt>
      <trkpt lat="45.7368638" lon="126.6286810">
        <ele>0</ele>
        <time>2026-09-12T10:57:07.000Z</time>
      </trkpt>
      <trkpt lat="45.7368931" lon="126.6286828">
        <ele>0</ele>
        <time>2026-09-12T10:57:08.000Z</time>
      </trkpt>
      <trkpt lat="45.7369229" lon="126.6286816">
        <ele>0</ele>
        <time>2026-09-12T10:57:09.000Z</time>
      </trkpt>
      <trkpt lat="45.7369523" lon="126.6286831">
        <ele>0</ele>
        <time>2026-09-12T10:57:10.000Z</time>
      </trkpt>
      <trkpt lat="45.7369847" lon="126.6286845">
        <ele>0</ele>
        <time>2026-09-12T10:57:11.000Z</time>
      </trkpt>
      <trkpt lat="45.7370130" lon="126.6286861">
        <ele>0</ele>
        <time>2026-09-12T10:57:12.000Z</time>
      </trkpt>
      <trkpt lat="45.7370407" lon="126.6286804">
        <ele>0</ele>
        <time>2026-09-12T10:57:13.000Z</time>
      </trkpt>
      <trkpt lat="45.7370718" lon="126.6286912">
        <ele>0</ele>
        <time>2026-09-12T10:57:14.000Z</time>
      </trkpt>
      <trkpt lat="45.7371006" lon="126.6286926">
        <ele>0</ele>
        <time>2026-09-12T10:57:15.000Z</time>
      </trkpt>
      <trkpt lat="45.7371311" lon="126.6286899">
        <ele>0</ele>
        <time>2026-09-12T10:57:16.000Z</time>
      </trkpt>
      <trkpt lat="45.7371622" lon="126.6286927">
        <ele>0</ele>
        <time>2026-09-12T10:57:17.000Z</time>
      </trkpt>
      <trkpt lat="45.7371909" lon="126.6286825">
        <ele>0</ele>
        <time>2026-09-12T10:57:18.000Z</time>
      </trkpt>
      <trkpt lat="45.7372219" lon="126.6286741">
        <ele>0</ele>
        <time>2026-09-12T10:57:19.000Z</time>
      </trkpt>
      <trkpt lat="45.7372487" lon="126.6286633">
        <ele>0</ele>
        <time>2026-09-12T10:57:20.000Z</time>
      </trkpt>
      <trkpt lat="45.7372742" lon="126.6286469">
        <ele>0</ele>
        <time>2026-09-12T10:57:21.000Z</time>
      </trkpt>
      <trkpt lat="45.7373048" lon="126.6286315">
        <ele>0</ele>
        <time>2026-09-12T10:57:22.000Z</time>
      </trkpt>
      <trkpt lat="45.7373315" lon="126.6286139">
        <ele>0</ele>
        <time>2026-09-12T10:57:23.000Z</time>
      </trkpt>
      <trkpt lat="45.7373555" lon="126.6285819">
        <ele>0</ele>
        <time>2026-09-12T10:57:24.000Z</time>
      </trkpt>
      <trkpt lat="45.7373762" lon="126.6285548">
        <ele>0</ele>
        <time>2026-09-12T10:57:25.000Z</time>
      </trkpt>
      <trkpt lat="45.7373919" lon="126.6285162">
        <ele>0</ele>
        <time>2026-09-12T10:57:26.000Z</time>
      </trkpt>
      <trkpt lat="45.7374100" lon="126.6284818">
        <ele>0</ele>
        <time>2026-09-12T10:57:27.000Z</time>
      </trkpt>
      <trkpt lat="45.7374277" lon="126.6284428">
        <ele>0</ele>
        <time>2026-09-12T10:57:28.000Z</time>
      </trkpt>
      <trkpt lat="45.7374438" lon="126.6284045">
        <ele>0</ele>
        <time>2026-09-12T10:57:29.000Z</time>
      </trkpt>
      <trkpt lat="45.7374580" lon="126.6283622">
        <ele>0</ele>
        <time>2026-09-12T10:57:30.000Z</time>
      </trkpt>
      <trkpt lat="45.7374643" lon="126.6283211">
        <ele>0</ele>
        <time>2026-09-12T10:57:31.000Z</time>
      </trkpt>
      <trkpt lat="45.7374712" lon="126.6282807">
        <ele>0</ele>
        <time>2026-09-12T10:57:32.000Z</time>
      </trkpt>
      <trkpt lat="45.7374818" lon="126.6282340">
        <ele>0</ele>
        <time>2026-09-12T10:57:33.000Z</time>
      </trkpt>
      <trkpt lat="45.7374928" lon="126.6281961">
        <ele>0</ele>
        <time>2026-09-12T10:57:34.000Z</time>
      </trkpt>
      <trkpt lat="45.7375020" lon="126.6281586">
        <ele>0</ele>
        <time>2026-09-12T10:57:35.000Z</time>
      </trkpt>
      <trkpt lat="45.7375059" lon="126.6281233">
        <ele>0</ele>
        <time>2026-09-12T10:57:36.000Z</time>
      </trkpt>
      <trkpt lat="45.7375083" lon="126.6280852">
        <ele>0</ele>
        <time>2026-09-12T10:57:37.000Z</time>
      </trkpt>
      <trkpt lat="45.7375098" lon="126.6280446">
        <ele>0</ele>
        <time>2026-09-12T10:57:38.000Z</time>
      </trkpt>
      <trkpt lat="45.7375047" lon="126.6280119">
        <ele>0</ele>
        <time>2026-09-12T10:57:39.000Z</time>
      </trkpt>
      <trkpt lat="45.7374998" lon="126.6279691">
        <ele>0</ele>
        <time>2026-09-12T10:57:40.000Z</time>
      </trkpt>
      <trkpt lat="45.7374961" lon="126.6279263">
        <ele>0</ele>
        <time>2026-09-12T10:57:41.000Z</time>
      </trkpt>
      <trkpt lat="45.7374867" lon="126.6278871">
        <ele>0</ele>
        <time>2026-09-12T10:57:42.000Z</time>
      </trkpt>
      <trkpt lat="45.7374729" lon="126.6278487">
        <ele>0</ele>
        <time>2026-09-12T10:57:43.000Z</time>
      </trkpt>
      <trkpt lat="45.7374576" lon="126.6278088">
        <ele>0</ele>
        <time>2026-09-12T10:57:44.000Z</time>
      </trkpt>
      <trkpt lat="45.7374410" lon="126.6277764">
        <ele>0</ele>
        <time>2026-09-12T10:57:45.000Z</time>
      </trkpt>
      <trkpt lat="45.7374218" lon="126.6277502">
        <ele>0</ele>
        <time>2026-09-12T10:57:46.000Z</time>
      </trkpt>
      <trkpt lat="45.7373964" lon="126.6277263">
        <ele>0</ele>
        <time>2026-09-12T10:57:47.000Z</time>
      </trkpt>
      <trkpt lat="45.7373697" lon="126.6277005">
        <ele>0</ele>
        <time>2026-09-12T10:57:48.000Z</time>
      </trkpt>
      <trkpt lat="45.7373401" lon="126.6276751">
        <ele>0</ele>
        <time>2026-09-12T10:57:49.000Z</time>
      </trkpt>
      <trkpt lat="45.7373388" lon="126.6276741">
        <ele>0</ele>
        <time>2026-09-12T10:57:50.000Z</time>
      </trkpt>
      <trkpt lat="45.7373109" lon="126.6276768">
        <ele>0</ele>
        <time>2026-09-12T10:57:51.000Z</time>
      </trkpt>
      <trkpt lat="45.7372831" lon="126.6276814">
        <ele>0</ele>
        <time>2026-09-12T10:57:52.000Z</time>
      </trkpt>
      <trkpt lat="45.7372543" lon="126.6276767">
        <ele>0</ele>
        <time>2026-09-12T10:57:53.000Z</time>
      </trkpt>
      <trkpt lat="45.7372219" lon="126.6276774">
        <ele>0</ele>
        <time>2026-09-12T10:57:54.000Z</time>
      </trkpt>
      <trkpt lat="45.7371923" lon="126.6276815">
        <ele>0</ele>
        <time>2026-09-12T10:57:55.000Z</time>
      </trkpt>
      <trkpt lat="45.7371642" lon="126.6276852">
        <ele>0</ele>
        <time>2026-09-12T10:57:56.000Z</time>
      </trkpt>
      <trkpt lat="45.7371321" lon="126.6276886">
        <ele>0</ele>
        <time>2026-09-12T10:57:57.000Z</time>
      </trkpt>
      <trkpt lat="45.7371022" lon="126.6276931">
        <ele>0</ele>
        <time>2026-09-12T10:57:58.000Z</time>
      </trkpt>
      <trkpt lat="45.7370729" lon="126.6276982">
        <ele>0</ele>
        <time>2026-09-12T10:57:59.000Z</time>
      </trkpt>
      <trkpt lat="45.7370442" lon="126.6277049">
        <ele>0</ele>
        <time>2026-09-12T10:58:00.000Z</time>
      </trkpt>
      <trkpt lat="45.7370141" lon="126.6277090">
        <ele>0</ele>
        <time>2026-09-12T10:58:01.000Z</time>
      </trkpt>
      <trkpt lat="45.7369815" lon="126.6277066">
        <ele>0</ele>
        <time>2026-09-12T10:58:02.000Z</time>
      </trkpt>
      <trkpt lat="45.7369511" lon="126.6277113">
        <ele>0</ele>
        <time>2026-09-12T10:58:03.000Z</time>
      </trkpt>
      <trkpt lat="45.7369218" lon="126.6277151">
        <ele>0</ele>
        <time>2026-09-12T10:58:04.000Z</time>
      </trkpt>
      <trkpt lat="45.7368866" lon="126.6277131">
        <ele>0</ele>
        <time>2026-09-12T10:58:05.000Z</time>
      </trkpt>
      <trkpt lat="45.7368522" lon="126.6277154">
        <ele>0</ele>
        <time>2026-09-12T10:58:06.000Z</time>
      </trkpt>
      <trkpt lat="45.7368251" lon="126.6277155">
        <ele>0</ele>
        <time>2026-09-12T10:58:07.000Z</time>
      </trkpt>
      <trkpt lat="45.7367928" lon="126.6277083">
        <ele>0</ele>
        <time>2026-09-12T10:58:08.000Z</time>
      </trkpt>
      <trkpt lat="45.7367660" lon="126.6277042">
        <ele>0</ele>
        <time>2026-09-12T10:58:09.000Z</time>
      </trkpt>
      <trkpt lat="45.7367354" lon="126.6277013">
        <ele>0</ele>
        <time>2026-09-12T10:58:10.000Z</time>
      </trkpt>
      <trkpt lat="45.7367020" lon="126.6276975">
        <ele>0</ele>
        <time>2026-09-12T10:58:11.000Z</time>
      </trkpt>
      <trkpt lat="45.7366696" lon="126.6277004">
        <ele>0</ele>
        <time>2026-09-12T10:58:12.000Z</time>
      </trkpt>
      <trkpt lat="45.7366384" lon="126.6276967">
        <ele>0</ele>
        <time>2026-09-12T10:58:13.000Z</time>
      </trkpt>
      <trkpt lat="45.7366090" lon="126.6276887">
        <ele>0</ele>
        <time>2026-09-12T10:58:14.000Z</time>
      </trkpt>
      <trkpt lat="45.7365767" lon="126.6276862">
        <ele>0</ele>
        <time>2026-09-12T10:58:15.000Z</time>
      </trkpt>
      <trkpt lat="45.7365458" lon="126.6276897">
        <ele>0</ele>
        <time>2026-09-12T10:58:16.000Z</time>
      </trkpt>
      <trkpt lat="45.7365151" lon="126.6276829">
        <ele>0</ele>
        <time>2026-09-12T10:58:17.000Z</time>
      </trkpt>
      <trkpt lat="45.7364797" lon="126.6276816">
        <ele>0</ele>
        <time>2026-09-12T10:58:18.000Z</time>
      </trkpt>
      <trkpt lat="45.7364467" lon="126.6276765">
        <ele>0</ele>
        <time>2026-09-12T10:58:19.000Z</time>
      </trkpt>
      <trkpt lat="45.7364109" lon="126.6276689">
        <ele>0</ele>
        <time>2026-09-12T10:58:20.000Z</time>
      </trkpt>
      <trkpt lat="45.7363796" lon="126.6276612">
        <ele>0</ele>
        <time>2026-09-12T10:58:21.000Z</time>
      </trkpt>
      <trkpt lat="45.7363511" lon="126.6276532">
        <ele>0</ele>
        <time>2026-09-12T10:58:22.000Z</time>
      </trkpt>
      <trkpt lat="45.7363203" lon="126.6276486">
        <ele>0</ele>
        <time>2026-09-12T10:58:23.000Z</time>
      </trkpt>
      <trkpt lat="45.7362883" lon="126.6276360">
        <ele>0</ele>
        <time>2026-09-12T10:58:24.000Z</time>
      </trkpt>
      <trkpt lat="45.7362612" lon="126.6276381">
        <ele>0</ele>
        <time>2026-09-12T10:58:25.000Z</time>
      </trkpt>
      <trkpt lat="45.7362336" lon="126.6276285">
        <ele>0</ele>
        <time>2026-09-12T10:58:26.000Z</time>
      </trkpt>
      <trkpt lat="45.7362118" lon="126.6276186">
        <ele>0</ele>
        <time>2026-09-12T10:58:27.000Z</time>
      </trkpt>
      <trkpt lat="45.7361850" lon="126.6276387">
        <ele>0</ele>
        <time>2026-09-12T10:58:28.000Z</time>
      </trkpt>
      <trkpt lat="45.7361633" lon="126.6276572">
        <ele>0</ele>
        <time>2026-09-12T10:58:29.000Z</time>
      </trkpt>
      <trkpt lat="45.7361363" lon="126.6276836">
        <ele>0</ele>
        <time>2026-09-12T10:58:30.000Z</time>
      </trkpt>
      <trkpt lat="45.7361187" lon="126.6277184">
        <ele>0</ele>
        <time>2026-09-12T10:58:31.000Z</time>
      </trkpt>
      <trkpt lat="45.7361023" lon="126.6277479">
        <ele>0</ele>
        <time>2026-09-12T10:58:32.000Z</time>
      </trkpt>
      <trkpt lat="45.7360855" lon="126.6277758">
        <ele>0</ele>
        <time>2026-09-12T10:58:33.000Z</time>
      </trkpt>
      <trkpt lat="45.7360654" lon="126.6278090">
        <ele>0</ele>
        <time>2026-09-12T10:58:34.000Z</time>
      </trkpt>
      <trkpt lat="45.7360473" lon="126.6278492">
        <ele>0</ele>
        <time>2026-09-12T10:58:35.000Z</time>
      </trkpt>
      <trkpt lat="45.7360367" lon="126.6278912">
        <ele>0</ele>
        <time>2026-09-12T10:58:36.000Z</time>
      </trkpt>
      <trkpt lat="45.7360244" lon="126.6279314">
        <ele>0</ele>
        <time>2026-09-12T10:58:37.000Z</time>
      </trkpt>
      <trkpt lat="45.7360124" lon="126.6279673">
        <ele>0</ele>
        <time>2026-09-12T10:58:38.000Z</time>
      </trkpt>
      <trkpt lat="45.7360034" lon="126.6280095">
        <ele>0</ele>
        <time>2026-09-12T10:58:39.000Z</time>
      </trkpt>
      <trkpt lat="45.7359987" lon="126.6280600">
        <ele>0</ele>
        <time>2026-09-12T10:58:40.000Z</time>
      </trkpt>
      <trkpt lat="45.7359968" lon="126.6281011">
        <ele>0</ele>
        <time>2026-09-12T10:58:41.000Z</time>
      </trkpt>
      <trkpt lat="45.7360000" lon="126.6281547">
        <ele>0</ele>
        <time>2026-09-12T10:58:42.000Z</time>
      </trkpt>
      <trkpt lat="45.7360043" lon="126.6282025">
        <ele>0</ele>
        <time>2026-09-12T10:58:43.000Z</time>
      </trkpt>
      <trkpt lat="45.7360071" lon="126.6282455">
        <ele>0</ele>
        <time>2026-09-12T10:58:44.000Z</time>
      </trkpt>
      <trkpt lat="45.7360185" lon="126.6282880">
        <ele>0</ele>
        <time>2026-09-12T10:58:45.000Z</time>
      </trkpt>
      <trkpt lat="45.7360262" lon="126.6283282">
        <ele>0</ele>
        <time>2026-09-12T10:58:46.000Z</time>
      </trkpt>
      <trkpt lat="45.7360390" lon="126.6283704">
        <ele>0</ele>
        <time>2026-09-12T10:58:47.000Z</time>
      </trkpt>
      <trkpt lat="45.7360501" lon="126.6284005">
        <ele>0</ele>
        <time>2026-09-12T10:58:48.000Z</time>
      </trkpt>
      <trkpt lat="45.7360602" lon="126.6284423">
        <ele>0</ele>
        <time>2026-09-12T10:58:49.000Z</time>
      </trkpt>
      <trkpt lat="45.7360711" lon="126.6284805">
        <ele>0</ele>
        <time>2026-09-12T10:58:50.000Z</time>
      </trkpt>
      <trkpt lat="45.7360886" lon="126.6285175">
        <ele>0</ele>
        <time>2026-09-12T10:58:51.000Z</time>
      </trkpt>
      <trkpt lat="45.7361127" lon="126.6285512">
        <ele>0</ele>
        <time>2026-09-12T10:58:52.000Z</time>
      </trkpt>
      <trkpt lat="45.7361369" lon="126.6285839">
        <ele>0</ele>
        <time>2026-09-12T10:58:53.000Z</time>
      </trkpt>
      <trkpt lat="45.7361589" lon="126.6286049">
        <ele>0</ele>
        <time>2026-09-12T10:58:54.000Z</time>
      </trkpt>
      <trkpt lat="45.7361879" lon="126.6286302">
        <ele>0</ele>
        <time>2026-09-12T10:58:55.000Z</time>
      </trkpt>
      <trkpt lat="45.7362163" lon="126.6286521">
        <ele>0</ele>
        <time>2026-09-12T10:58:56.000Z</time>
      </trkpt>
      <trkpt lat="45.7362363" lon="126.6286759">
        <ele>0</ele>
        <time>2026-09-12T10:58:57.000Z</time>
      </trkpt>
      <trkpt lat="45.7362667" lon="126.6286907">
        <ele>0</ele>
        <time>2026-09-12T10:58:58.000Z</time>
      </trkpt>
      <trkpt lat="45.7362981" lon="126.6286982">
        <ele>0</ele>
        <time>2026-09-12T10:58:59.000Z</time>
      </trkpt>
      <trkpt lat="45.7363269" lon="126.6287080">
        <ele>0</ele>
        <time>2026-09-12T10:59:00.000Z</time>
      </trkpt>
      <trkpt lat="45.7363581" lon="126.6287080">
        <ele>0</ele>
        <time>2026-09-12T10:59:01.000Z</time>
      </trkpt>
      <trkpt lat="45.7363869" lon="126.6287092">
        <ele>0</ele>
        <time>2026-09-12T10:59:02.000Z</time>
      </trkpt>
      <trkpt lat="45.7364195" lon="126.6287062">
        <ele>0</ele>
        <time>2026-09-12T10:59:03.000Z</time>
      </trkpt>
      <trkpt lat="45.7364556" lon="126.6287096">
        <ele>0</ele>
        <time>2026-09-12T10:59:04.000Z</time>
      </trkpt>
      <trkpt lat="45.7364857" lon="126.6287112">
        <ele>0</ele>
        <time>2026-09-12T10:59:05.000Z</time>
      </trkpt>
      <trkpt lat="45.7365125" lon="126.6287133">
        <ele>0</ele>
        <time>2026-09-12T10:59:06.000Z</time>
      </trkpt>
      <trkpt lat="45.7365430" lon="126.6287106">
        <ele>0</ele>
        <time>2026-09-12T10:59:07.000Z</time>
      </trkpt>
      <trkpt lat="45.7365732" lon="126.6287162">
        <ele>0</ele>
        <time>2026-09-12T10:59:08.000Z</time>
      </trkpt>
      <trkpt lat="45.7366063" lon="126.6287158">
        <ele>0</ele>
        <time>2026-09-12T10:59:09.000Z</time>
      </trkpt>
      <trkpt lat="45.7366391" lon="126.6287246">
        <ele>0</ele>
        <time>2026-09-12T10:59:10.000Z</time>
      </trkpt>
      <trkpt lat="45.7366713" lon="126.6287228">
        <ele>0</ele>
        <time>2026-09-12T10:59:11.000Z</time>
      </trkpt>
      <trkpt lat="45.7367048" lon="126.6287198">
        <ele>0</ele>
        <time>2026-09-12T10:59:12.000Z</time>
      </trkpt>
      <trkpt lat="45.7367332" lon="126.6287170">
        <ele>0</ele>
        <time>2026-09-12T10:59:13.000Z</time>
      </trkpt>
      <trkpt lat="45.7367628" lon="126.6287152">
        <ele>0</ele>
        <time>2026-09-12T10:59:14.000Z</time>
      </trkpt>
      <trkpt lat="45.7367948" lon="126.6287162">
        <ele>0</ele>
        <time>2026-09-12T10:59:15.000Z</time>
      </trkpt>
      <trkpt lat="45.7368228" lon="126.6287130">
        <ele>0</ele>
        <time>2026-09-12T10:59:16.000Z</time>
      </trkpt>
      <trkpt lat="45.7368546" lon="126.6287078">
        <ele>0</ele>
        <time>2026-09-12T10:59:17.000Z</time>
      </trkpt>
      <trkpt lat="45.7368863" lon="126.6287142">
        <ele>0</ele>
        <time>2026-09-12T10:59:18.000Z</time>
      </trkpt>
      <trkpt lat="45.7369162" lon="126.6287118">
        <ele>0</ele>
        <time>2026-09-12T10:59:19.000Z</time>
      </trkpt>
      <trkpt lat="45.7369444" lon="126.6287130">
        <ele>0</ele>
        <time>2026-09-12T10:59:20.000Z</time>
      </trkpt>
      <trkpt lat="45.7369696" lon="126.6287143">
        <ele>0</ele>
        <time>2026-09-12T10:59:21.000Z</time>
      </trkpt>
      <trkpt lat="45.7370032" lon="126.6287215">
        <ele>0</ele>
        <time>2026-09-12T10:59:22.000Z</time>
      </trkpt>
      <trkpt lat="45.7370310" lon="126.6287173">
        <ele>0</ele>
        <time>2026-09-12T10:59:23.000Z</time>
      </trkpt>
      <trkpt lat="45.7370595" lon="126.6287145">
        <ele>0</ele>
        <time>2026-09-12T10:59:24.000Z</time>
      </trkpt>
      <trkpt lat="45.7370911" lon="126.6287125">
        <ele>0</ele>
        <time>2026-09-12T10:59:25.000Z</time>
      </trkpt>
      <trkpt lat="45.7371221" lon="126.6287146">
        <ele>0</ele>
        <time>2026-09-12T10:59:26.000Z</time>
      </trkpt>
      <trkpt lat="45.7371509" lon="126.6287114">
        <ele>0</ele>
        <time>2026-09-12T10:59:27.000Z</time>
      </trkpt>
      <trkpt lat="45.7371799" lon="126.6287115">
        <ele>0</ele>
        <time>2026-09-12T10:59:28.000Z</time>
      </trkpt>
      <trkpt lat="45.7372074" lon="126.6287057">
        <ele>0</ele>
        <time>2026-09-12T10:59:29.000Z</time>
      </trkpt>
      <trkpt lat="45.7372372" lon="126.6286994">
        <ele>0</ele>
        <time>2026-09-12T10:59:30.000Z</time>
      </trkpt>
      <trkpt lat="45.7372644" lon="126.6286926">
        <ele>0</ele>
        <time>2026-09-12T10:59:31.000Z</time>
      </trkpt>
      <trkpt lat="45.7372894" lon="126.6286655">
        <ele>0</ele>
        <time>2026-09-12T10:59:32.000Z</time>
      </trkpt>
      <trkpt lat="45.7373129" lon="126.6286504">
        <ele>0</ele>
        <time>2026-09-12T10:59:33.000Z</time>
      </trkpt>
      <trkpt lat="45.7373390" lon="126.6286341">
        <ele>0</ele>
        <time>2026-09-12T10:59:34.000Z</time>
      </trkpt>
      <trkpt lat="45.7373624" lon="126.6286165">
        <ele>0</ele>
        <time>2026-09-12T10:59:35.000Z</time>
      </trkpt>
      <trkpt lat="45.7373841" lon="126.6285925">
        <ele>0</ele>
        <time>2026-09-12T10:59:36.000Z</time>
      </trkpt>
      <trkpt lat="45.7374054" lon="126.6285646">
        <ele>0</ele>
        <time>2026-09-12T10:59:37.000Z</time>
      </trkpt>
      <trkpt lat="45.7374226" lon="126.6285316">
        <ele>0</ele>
        <time>2026-09-12T10:59:38.000Z</time>
      </trkpt>
      <trkpt lat="45.7374359" lon="126.6285020">
        <ele>0</ele>
        <time>2026-09-12T10:59:39.000Z</time>
      </trkpt>
      <trkpt lat="45.7374519" lon="126.6284678">
        <ele>0</ele>
        <time>2026-09-12T10:59:40.000Z</time>
      </trkpt>
      <trkpt lat="45.7374656" lon="126.6284331">
        <ele>0</ele>
        <time>2026-09-12T10:59:41.000Z</time>
      </trkpt>
      <trkpt lat="45.7374788" lon="126.6283927">
        <ele>0</ele>
        <time>2026-09-12T10:59:42.000Z</time>
      </trkpt>
      <trkpt lat="45.7374885" lon="126.6283474">
        <ele>0</ele>
        <time>2026-09-12T10:59:43.000Z</time>
      </trkpt>
      <trkpt lat="45.7374973" lon="126.6283036">
        <ele>0</ele>
        <time>2026-09-12T10:59:44.000Z</time>
      </trkpt>
      <trkpt lat="45.7375040" lon="126.6282597">
        <ele>0</ele>
        <time>2026-09-12T10:59:45.000Z</time>
      </trkpt>
      <trkpt lat="45.7375134" lon="126.6282196">
        <ele>0</ele>
        <time>2026-09-12T10:59:46.000Z</time>
      </trkpt>
      <trkpt lat="45.7375187" lon="126.6281769">
        <ele>0</ele>
        <time>2026-09-12T10:59:47.000Z</time>
      </trkpt>
      <trkpt lat="45.7375259" lon="126.6281399">
        <ele>0</ele>
        <time>2026-09-12T10:59:48.000Z</time>
      </trkpt>
      <trkpt lat="45.7375283" lon="126.6280975">
        <ele>0</ele>
        <time>2026-09-12T10:59:49.000Z</time>
      </trkpt>
      <trkpt lat="45.7375321" lon="126.6280574">
        <ele>0</ele>
        <time>2026-09-12T10:59:50.000Z</time>
      </trkpt>
      <trkpt lat="45.7375301" lon="126.6280168">
        <ele>0</ele>
        <time>2026-09-12T10:59:51.000Z</time>
      </trkpt>
      <trkpt lat="45.7375256" lon="126.6279751">
        <ele>0</ele>
        <time>2026-09-12T10:59:52.000Z</time>
      </trkpt>
      <trkpt lat="45.7375188" lon="126.6279358">
        <ele>0</ele>
        <time>2026-09-12T10:59:53.000Z</time>
      </trkpt>
      <trkpt lat="45.7375114" lon="126.6278970">
        <ele>0</ele>
        <time>2026-09-12T10:59:54.000Z</time>
      </trkpt>
      <trkpt lat="45.7374986" lon="126.6278619">
        <ele>0</ele>
        <time>2026-09-12T10:59:55.000Z</time>
      </trkpt>
      <trkpt lat="45.7374836" lon="126.6278251">
        <ele>0</ele>
        <time>2026-09-12T10:59:56.000Z</time>
      </trkpt>
      <trkpt lat="45.7374697" lon="126.6277828">
        <ele>0</ele>
        <time>2026-09-12T10:59:57.000Z</time>
      </trkpt>
      <trkpt lat="45.7374514" lon="126.6277475">
        <ele>0</ele>
        <time>2026-09-12T10:59:58.000Z</time>
      </trkpt>
      <trkpt lat="45.7374276" lon="126.6277208">
        <ele>0</ele>
        <time>2026-09-12T10:59:59.000Z</time>
      </trkpt>
      <trkpt lat="45.7374063" lon="126.6276941">
        <ele>0</ele>
        <time>2026-09-12T11:00:00.000Z</time>
      </trkpt>
      <trkpt lat="45.7373788" lon="126.6276737">
        <ele>0</ele>
        <time>2026-09-12T11:00:01.000Z</time>
      </trkpt>
      <trkpt lat="45.7373526" lon="126.6276547">
        <ele>0</ele>
        <time>2026-09-12T11:00:02.000Z</time>
      </trkpt>
      <trkpt lat="45.7373330" lon="126.6276479">
        <ele>0</ele>
        <time>2026-09-12T11:00:03.000Z</time>
      </trkpt>
      <trkpt lat="45.7373018" lon="126.6276509">
        <ele>0</ele>
        <time>2026-09-12T11:00:04.000Z</time>
      </trkpt>
      <trkpt lat="45.7372717" lon="126.6276504">
        <ele>0</ele>
        <time>2026-09-12T11:00:05.000Z</time>
      </trkpt>
      <trkpt lat="45.7372435" lon="126.6276541">
        <ele>0</ele>
        <time>2026-09-12T11:00:06.000Z</time>
      </trkpt>
      <trkpt lat="45.7372081" lon="126.6276588">
        <ele>0</ele>
        <time>2026-09-12T11:00:07.000Z</time>
      </trkpt>
      <trkpt lat="45.7371780" lon="126.6276575">
        <ele>0</ele>
        <time>2026-09-12T11:00:08.000Z</time>
      </trkpt>
      <trkpt lat="45.7371460" lon="126.6276613">
        <ele>0</ele>
        <time>2026-09-12T11:00:09.000Z</time>
      </trkpt>
      <trkpt lat="45.7371163" lon="126.6276579">
        <ele>0</ele>
        <time>2026-09-12T11:00:10.000Z</time>
      </trkpt>
      <trkpt lat="45.7370862" lon="126.6276622">
        <ele>0</ele>
        <time>2026-09-12T11:00:11.000Z</time>
      </trkpt>
      <trkpt lat="45.7370563" lon="126.6276633">
        <ele>0</ele>
        <time>2026-09-12T11:00:12.000Z</time>
      </trkpt>
      <trkpt lat="45.7370250" lon="126.6276684">
        <ele>0</ele>
        <time>2026-09-12T11:00:13.000Z</time>
      </trkpt>
      <trkpt lat="45.7369921" lon="126.6276703">
        <ele>0</ele>
        <time>2026-09-12T11:00:14.000Z</time>
      </trkpt>
      <trkpt lat="45.7369640" lon="126.6276711">
        <ele>0</ele>
        <time>2026-09-12T11:00:15.000Z</time>
      </trkpt>
      <trkpt lat="45.7369356" lon="126.6276717">
        <ele>0</ele>
        <time>2026-09-12T11:00:16.000Z</time>
      </trkpt>
      <trkpt lat="45.7369037" lon="126.6276683">
        <ele>0</ele>
        <time>2026-09-12T11:00:17.000Z</time>
      </trkpt>
      <trkpt lat="45.7368749" lon="126.6276646">
        <ele>0</ele>
        <time>2026-09-12T11:00:18.000Z</time>
      </trkpt>
      <trkpt lat="45.7368452" lon="126.6276690">
        <ele>0</ele>
        <time>2026-09-12T11:00:19.000Z</time>
      </trkpt>
      <trkpt lat="45.7368172" lon="126.6276688">
        <ele>0</ele>
        <time>2026-09-12T11:00:20.000Z</time>
      </trkpt>
      <trkpt lat="45.7367882" lon="126.6276713">
        <ele>0</ele>
        <time>2026-09-12T11:00:21.000Z</time>
      </trkpt>
      <trkpt lat="45.7367558" lon="126.6276725">
        <ele>0</ele>
        <time>2026-09-12T11:00:22.000Z</time>
      </trkpt>
      <trkpt lat="45.7367225" lon="126.6276701">
        <ele>0</ele>
        <time>2026-09-12T11:00:23.000Z</time>
      </trkpt>
      <trkpt lat="45.7366945" lon="126.6276678">
        <ele>0</ele>
        <time>2026-09-12T11:00:24.000Z</time>
      </trkpt>
      <trkpt lat="45.7366656" lon="126.6276566">
        <ele>0</ele>
        <time>2026-09-12T11:00:25.000Z</time>
      </trkpt>
      <trkpt lat="45.7366361" lon="126.6276557">
        <ele>0</ele>
        <time>2026-09-12T11:00:26.000Z</time>
      </trkpt>
      <trkpt lat="45.7366060" lon="126.6276555">
        <ele>0</ele>
        <time>2026-09-12T11:00:27.000Z</time>
      </trkpt>
      <trkpt lat="45.7365763" lon="126.6276492">
        <ele>0</ele>
        <time>2026-09-12T11:00:28.000Z</time>
      </trkpt>
      <trkpt lat="45.7365448" lon="126.6276483">
        <ele>0</ele>
        <time>2026-09-12T11:00:29.000Z</time>
      </trkpt>
      <trkpt lat="45.7365160" lon="126.6276505">
        <ele>0</ele>
        <time>2026-09-12T11:00:30.000Z</time>
      </trkpt>
      <trkpt lat="45.7364845" lon="126.6276513">
        <ele>0</ele>
        <time>2026-09-12T11:00:31.000Z</time>
      </trkpt>
      <trkpt lat="45.7364565" lon="126.6276489">
        <ele>0</ele>
        <time>2026-09-12T11:00:32.000Z</time>
      </trkpt>
      <trkpt lat="45.7364307" lon="126.6276417">
        <ele>0</ele>
        <time>2026-09-12T11:00:33.000Z</time>
      </trkpt>
    </trkseg>
  </trk>
</gpx>